Name,Full Address,City,State,ZIP
Texas MLS Real Estate Photography,"1623 Central Blvd Suite 205, Brownsville, TX 78520",,,
Onassis Retail Center,"6672 S Padre Island Hwy, Brownsville, TX 78521",,,
Morrison Plaza,"3340 Pablo Kisel Blvd, Brownsville, TX 78526",,,
Two-22 Station,"222 Frontage Rd, Brownsville, TX 78521",,,
Las Palmas Apartments,"4200 Las Palmas Cir, Brownsville, TX 78521",,,
Lily Rock Rentals,"434 Galveston Rd, Brownsville, TX 78521",,,
Peninsula Commons,"4444 E 14th St, Brownsville, TX 78521",,,
United Executive Office Suites,"4002 Paredes Line Rd, Brownsville, TX 78526",,,
Sundance Meadows Apartment Homes,"865 Tonys Rd, Brownsville, TX 78526",,,
Lantana Apartments,"2025 Old Port Isabel Rd, Brownsville, TX 78521",,,
Don Philip Apartments,"205 Pinar del Rio Ave, Brownsville, TX 78526",,,
Brandywyne Apartments,"605 Paredes Line Rd, Brownsville, TX 78521",,,
Tropical Gardens At Boca Chica,"250 Ash St, Brownsville, TX 78521",,,
Brownsville Lofts,"1904 Central Blvd, Brownsville, TX 78520",,,
"Connie Uribe, Realtor at Keller Williams Realty LRGV","1713 E Tyler Ave suite a, Harlingen, TX 78550",,,
Josh Long - Real Estate Agent - RE/MAX Signature Properties,"208 E Louisiana St #314, McKinney, TX 75069",,,
"Kraft-Oakes Real Estate Team - David Kraft, Gaylan Kraft, Christy Oakes, Blair Abbott, Tori Grace Spiars","7701 Eldorado Pkwy Suite #400, McKinney, TX 75070",,,
Astra Realty,"6401 Eldorado Pkwy STE 109, McKinney, TX 75070",,,
Keller Williams Realty McKinney [KW McKinney - Main Office],"7200 W University Dr #300, McKinney, TX 75071",,,
The Great Home Team - Local Realty Agency,6401 Eldorado Pkwy STE 123,,,
Acquisto Real Estate,"8146 Co Rd 860, McKinney, TX 75071",,,
1152 Realty: Sakina Ismaelbay - McKinney TX Real Estate Agent,"5900 S Lake Forest Dr Ste 300, McKinney, TX 75070",,,
"Fetrow Realty Team, Real Broker LLC","2001 Auburn Hills Pkwy #601, McKinney, TX 75071",,,
Tye Realty Group,"209 N Tennessee St, McKinney, TX 75069",,,
Feller Realty: Jason Feller,"3512 Cockrill Dr, McKinney, TX 75072",,,
"Toni Morrow, Realtor - Tomorrow's Realty Group with Re/Max Four Corners","7701 Eldorado Pkwy #400, McKinney, TX 75070",,,
davidson lane real estate group,"7951 Collin McKinney Pkwy APT 450, McKinney, TX 75070",,,
Russell Realty,"Historic Downtown, 201 W Virginia St Suite 100",,,
"Leah Martinez, Realtor ® Texas House Hustlas","7290 Virginia Pkwy STE 2400, McKinney, TX 75071",,,
RE/MAX Four Corners,7701 Eldorado Pkwy Suite #400,,,
Melissa Eason Real Estate Services,"4013 Muscovy Dr, McKinney, TX 75072",,,
"RES-Real Estate Services, McKissick & Assoc.","1833 W Hunt St #102, McKinney, TX 75069",,,
Coldwell Banker Apex Realtors,7290 Virginia Pkwy STE 2400,,,
Classic Homes Realty LLC,"6710 Virginia Pkwy Suite 215-19, McKinney, TX 75071",,,
Ebby Halliday Realtors in McKinney,"6051 Virginia Pkwy, McKinney, TX 75071",,,
THE STASEY GROUP,"9700 Water Tree Dr, McKinney, TX 75072",,,
The Vaile Group Real Estate,"4019 Daxton Dr, McKinney, TX 75071",,,
"TEXAS ELITE REALTY, LLC","3900 S Stonebridge Dr STE 1002, McKinney, TX 75070",,,
Brenda Love | Fathom Realty,,,,
"Marilyn Iness Diamond Group - Coldwell Banker, Apex Realtor","7290 Virginia Pkwy STE 2400, McKinney, TX 75071",,,
"Jenny Kaiser, Realtor & McKinney Branch Manger",7290 Virginia Pkwy STE 2400,,,
The Milstead Team,,,,
North Realty Group | Compass Realty,208 S Johnson St Suite 103,,,
The Picket Fence Team,"7200 W University Dr #300, McKinney, TX 75071",,,
Gena Roberson - Gena Sells Real Estate,"7200 W University Dr Ste 300, McKinney, TX 75071",,,
Jane Clark Realty Group I Keller Williams McKinney,"7200 W University Dr #300, McKinney, TX 75071",,,
Cherry Tree Realty Group,"7701 Eldorado Pkwy Suite #400, McKinney, TX 75070",,,
Stonebridge Realty Group,"5100 Eldorado Pkwy, McKinney, TX 75072",,,
Mike Shepherd - Acquisto Real Estate,"2424 Co Rd 855, McKinney, TX 75071",,,
"Attlee Realty, LLC","8751 Collin McKinney Pkwy STE 1405, McKinney, TX 75070",,,
Unbundle Realty,"5900 S Lake Forest Dr Ste 300, McKinney, TX 75070",,,
Pro Deo Realty,"6401 Eldorado Pkwy STE 202, McKinney, TX 75070",,,
Morris Whitis Realty,"5900 S Lake Forest Dr Ste 300, McKinney, TX 75070",,,
"Truepoint Realty, Jennifer Cox - Broker","6675 Mediterranean Dr suite #505, McKinney, TX 75070",,,
Carie Dallmann | RE/MAX Four Corners,"7701 Eldorado Pkwy Suite #400, McKinney, TX 75070",,,
Carey Cox Company,"321 N Central Expy STE 370, McKinney, TX 75070",,,
"Brittany Stewart, Real Estate Broker Associate/Realtor","3721 S Stonebridge Dr Unit 804, McKinney, TX 75070",,,
TX Home Market,"5900 S Lake Forest Dr Suite 200 A, McKinney, TX 75070",,,
JPAR - McKinney,"209 E Louisiana St, McKinney, TX 75069",,,
"The Vaughan Real Estate Team, Keller Williams McKinney","7200 W University Dr #300, McKinney, TX 75071",,,
Amanda Grantham REALTOR® | RE/MAX Four Corners,"7701 Eldorado Pkwy Suite #400, McKinney, TX 75070",,,
Vanessa Cantu- Dallas Realtor,"7290 Virginia Pkwy Suite 2400-A, McKinney, TX 75071",,,
Fathom Realty - Lalit Thakkar Realtor,"6841 Virginia Pkwy #103-448, McKinney, TX 75071",,,
"Pilkenton Real Estate, Inc.","7200 W University Dr Suite 344, McKinney, TX 75071",,,
Bill Krueger Realtor Coldwell Banker Apex,7290 Virginia Pkwy STE 2400,,,
Mikhail Messer REALTOR I eXp Realty,"3721 S Stonebridge Dr #804, McKinney, TX 75070",,,
Megan Bennett | Changing Latitudes Texas,"300 Davis St Suite #145, McKinney, TX 75069",,,
Kathy Morrison Homes,"7290 Virginia Pkwy Suite 2400-A, McKinney, TX 75071",,,
S&W Realty Group,"6841 Virginia Pkwy Ste 100, McKinney, TX 75071",,,
M & Co Realty Group,"7290 Virginia Pkwy STE 2400, McKinney, TX 75071",,,
"Mason Colman, Realtor - Coldwell Banker Apex Realtors",7290 Virginia Pkwy STE 2400,,,
John Christie Real Estate,"1700 Redbud Blvd, McKinney, TX 75069",,,
"Cindy Coggins Realty Group | Realtor - Keller Williams, Allen TX","1002 Raintree Cir STE 100, Allen, TX 75013",,,
"Rebecca Smith, Realtor - Fathom Realty","6842 Virginia Pkwy Ste 103-448, McKinney, TX 75071",,,
"Fathom Realty, LLC",6841 Virginia Pkwy Ste 103-448,,,
Living in North Dallas - Preston Gale Realtor,"2150 S Central Expy #200, McKinney, TX 75070",,,
Phillips Realty Group,"305 E Virginia St Ste 203, McKinney, TX 75069",,,
Pria Patel REALTOR® - Pria Patel Real Estate Group - Fathom Realty,6841 Virginia Pkwy Suite 103 - 448,,,
"Jay Singh Realty-Frisco, TX","301 S Watters Rd, Allen, TX 75013",,,
Keller Williams McKinney - Jane Clark,"6951 Virginia Pkwy STE 100, McKinney, TX 75071",,,
Appian Commercial Realty,"6657 Virginia Pkwy, McKinney, TX 75071",,,
Edens Realty Group,"3900 S Stonebridge Dr Suite 603, McKinney, TX 75072",,,
Franklin Land Company,"1650 W Virginia St STE 212, McKinney, TX 75069",,,
The Selling eXperts,"2001 Auburn Hills Pkwy #303D, McKinney, TX 75071",,,
Texas Property Sisters Realty Group - Coldwell Banker Apex,7290 Virginia Pkwy STE 2400,,,
On Target Realty,"1500 S Central Expy # 274, McKinney, TX 75072",,,
"Mary Paschali, REALTOR® - JPAR - Real Estate","3900 S Stonebridge Dr Suite 603, McKinney, TX 75070",,,
Infinity Realty Texas,"5900 S Lake Forest Dr, McKinney, TX 75070",,,
Montgomery Realty Experts,"375 Adriatic Pkwy, McKinney, TX 75072",,,
"Sidecar Commercial Real Estate, LLC","9331 Westridge Blvd #4401, McKinney, TX 75072",,,
Texas Five Star Realty,"2011-2014, TX-5, McKinney, TX 75069",,,
Real Estate by Joe Cloud & Associates,"5999 Custer Rd Suite 110-305, Frisco, TX 75035",,,
Kalla Real Estate,"2150 S Central Expy STE 200, McKinney, TX 75070",,,
Janie Nieto | ABR | GRI | MRP | SRS | Bilingual REALTOR® | Coldwell Banker,"7290 Virginia Pkwy STE 2400, McKinney, TX 75071",,,
Erika Loya - REALTOR Simply Texas Real Estate Group - Real Broker,"300 Davis St Suite 117, McKinney, TX 75069",,,
"United Country-Texas Real Estate Associates - Kevin McGraw, McKinney, TX",texasrealestateassociates.com,,,
"Josh Cristales, REALTOR at Ebby Halliday","6051 Virginia Pkwy Suite 100, McKinney, TX 75071",,,
Julian Vasquez Real Estate Group,"203 N Waddill St, McKinney, TX 75069",,,
Martha Lara Realtor,"7701 Eldorado Pkwy Suite #400, McKinney, TX 75070",,,
"Deborah Diviney, Realtor",7290 Virginia Pkwy STE 2400,,,
"Amy Martin, Texas Realtor","7701 Eldorado Pkwy Suite #400, McKinney, TX 75070",,,
"Bryson Realty Advisors, LLC",1216 N Central Expy N #200b,,,
Welcome Home Realty,6401 Eldorado Pkwy STE 112,,,
TurnBay Properties LLC,"2150 S Central Expy STE 200, McKinney, TX 75070",,,
Milton Barboza EXP Realty,"1831 W Louisiana St, McKinney, TX 75069",,,
The Entry Key Realty Group,"5900 S Lake Forest Dr Ste 300, McKinney, TX 75070",,,
Fathom Realty : Ron Cannaday,"6841 Virginia Pkwy #103-448, McKinney, TX 75071",,,
Southwest USA Realty,"1700 Redbud Blvd, McKinney, TX 75069",,,
Mark Messer,"6657 Virginia Pkwy suite 300, McKinney, TX 75071",,,
Estate Exit,"5900 S Lake Forest Dr Ste 300, McKinney, TX 75070",,,
Estates of McKinney,"7200 Welcome Blvd, McKinney, TX 75071",,,
McCraw Properties,"1415 Harroun Ave, McKinney, TX 75069",,,
Wes Haile Realty Group,7200 W University Dr,,,
McKinney Real Estate Services,instacard.co,,,
HIGHMOUNT SALES AND LETTINGS,2603 W Point,,,
steve bloomquist,"6841 Virginia Pkwy, McKinney, TX 75071",,,
Barbara Worth-Realtor,"7200 W University Dr #300, McKinney, TX 75071",,,
NTXAREA,"8423 Spectrum Dr, McKinney, TX 75072",,,
Gineth Anez Realtor @FathomRealty,6841 Virginia Pkwy Ste 100,,,
RE/MAX Signature Properties,6951 Virginia Pkwy,,,
The Real Property Store,"1816 W Josephine St, McKinney, TX 75069",,,
Empire Management,"1127 Mahogany Ln, McKinney, TX 75071",,,
The Gables of McKinney,"1500 Eldorado Pkwy, McKinney, TX 75069",,,
"Mara Poling, LLC","470 Adriatic Pkwy #2201, McKinney, TX 75072",,,
ACRealty Group,6841 Virginia Pkwy Ste 100,,,
Kristin Palacios Realtor - Coldwell Banker Apex,cbapex.com,,,
Elevate at Skyline Townhomes,"1999 Skyline Dr, McKinney, TX 75071",,,
The Neel Group • Fathom Realty,"321 N Central Expy #101, McKinney, TX 75070",,,
Luxe Prosper,"8201 Luxe Blvd, McKinney, TX 75071",,,
"Dgc Realty Solutions, Llc 33118B","5020 Virginia Pkwy, McKinney, TX 75071",,,
Casa Deals,"103 E Virginia St, McKinney, TX 75069",,,
Mansions of McKinney,"717 Imperial Blvd, McKinney, TX 75071",,,
lantsaproperties,"550 N Central Expy N, McKinney, TX 75070",,,
Legacy Locators,"Settlement at Craig Ranch, 7804 Delaware Dr, McKinney, TX 75070",,,
The Vineyards Apartments,"9400 Wade Blvd, Frisco, TX 75035",,,
John R Landon Homes Signature Series at Lexington Frisco,"12365 Deer Trl, Frisco, TX 75035",,,
The Agency Frisco,"5566 Main St Suite #210, Frisco, TX 75033",,,
"Stacey Feltman Real Estate Group, Ebby Halliday Realtors","1415 Legacy Dr # 100, Frisco, TX 75034",,,
"Brownstead Real Estate, LLC","8700 Stonebrook Pkwy Box 551, Frisco, TX 75034",,,
"Hip Realty Group, LLC","Frisco, TX 75034",,,
The Tonya Peek Group - Coldwell Banker Realty,3211 Internet Blvd Suite #150,,,
The Christie Cannon Team - Keller Williams,"5933 Preston Rd #300, Frisco, TX 75034",,,
Hargrove Realty Group | Luxury Listing Agent Frisco,"12041 Venice Ct, Frisco, TX 75035",,,
"Stacey Leslie. The Agency, an eXp Brokered Agency","122 Rose Ln #1202, Frisco, TX 75036",,,
Paulette Greene Group,"6024, 1415 Legacy Dr # 100, Frisco, TX 75034",,,
KAITLIN LOVERN REAL ESTATE TEAM,"5 Cowboys Way STE 300, Frisco, TX 75034",,,
Cheney Group | Monument Realty,One Cowboys Way Suite 160,,,
Mr. Frisco / All City Real Estate Affiliate,13176 Dianna Dr,,,
Jane Cui Realty Group,"4783 Preston Rd #100, Frisco, TX 75034",,,
Hampton International Realty Group,"9244 Prestmont Pl Ste 308, Frisco, TX 75035",,,
"RE/MAX DFW Associates - Frisco, TX",6959 Lebanon Rd #201,,,
Matt Sells Homes for Free,"2321 Blackstone Dr, Frisco, TX 75033",,,
"Dallas North Group, Realtor - Frisco, TX","2595 Dallas Pkwy, Frisco, TX 75034",,,
Heritance Realty Group,"4783 Preston Rd #100, Frisco, TX 75034",,,
Iryna Mitchell Realtor,"11955 Dallas North Tollway #300a, Frisco, TX 75034",,,
North Texas Luxury Living | Frisco Real Estate,"6136 Frisco Square Blvd Suite 400, Frisco, TX 75034",,,
Monument Realty,1 Cowboys Way Suite 160,,,
RHI Real Estate - Eluyn Gines,"4783 Preston Rd #100, Frisco, TX 75034",,,
Lisa Birdsong Real Estate Group,"5 Cowboys Way STE 300, Frisco, TX 75034",,,
Hometiva (Flat Fee Realty),"2591 Dallas Pkwy Ste. 300, Frisco, TX 75034",,,
Hole In One Realty Group,"1 Cowboys Way, Frisco, TX 75034",,,
Re/Max DFW Associates: Kreg R. Hall,6959 Lebanon Rd #201,,,
Alex Piech | eXp Realty - Frisco Texas,"130 N Preston Rd, Prosper, TX 75078",,,
The Home Selling Pro,"4783 Preston Rd, Frisco, TX 75034",,,
"Lindsay Reyes, @Properties Frisco, Christie's International Real Estate","4606 Frisco Green Ave Ste.100, Frisco, TX 75034",,,
Keller Williams Frisco Stars,"4783 Preston Rd #100, Frisco, TX 75034",,,
LoKation Real Estate of Frisco,"6160 Warren Pkwy Suite, 100, Frisco, TX 75034",,,
CENTURY 21 Fine Homes & Estates Judge Fite Company,"6255 Frisco Square Blvd #100, Frisco, TX 75034",,,
Nina Bhanot Group,2595 Dallas Pkwy Suite 300,,,
STATUS Realty LLC,"5 Cowboys Way STE 300, Frisco, TX 75034",,,
Kristi Reinertsen Group - Coldwell Banker,3211 Internet Blvd Suite #150,,,
"Jay Singh Realty-Frisco, TX","301 S Watters Rd, Allen, TX 75013",,,
E5 Realty,"5570 FM 423 Suite 250-2120, Frisco, TX 75036",,,
Rivera Realty Inc,"2770 Main St #102, Frisco, TX 75033",,,
Orbit Realty Group,"5850 Town and Country Blvd Ste 403, Frisco, TX 75034",,,
Better Homes and Gardens Real Estate Winans,425 Old Newman Rd #304,,,
"Todd Luong, REALTOR®, RE/MAX DFW Associates","6959 Lebanon Rd Suit #201, Frisco, TX 75034",,,
Christina White Group | COMPASS RE,"2595 Dallas Pkwy Suite 300, Frisco, TX 75034",,,
Huggins Realty,"7460 Warren Pkwy Suite 100, Frisco, TX 75034",,,
"Omega Mejia, Realtor® w/ Simply Great Real Estate Group by Real Broker, LLC - Frisco, TX",,,,
Terry Hendricks Real Estate at RE/MAX DFW Associates,"6959 Lebanon Rd #201, Frisco, TX 75034",,,
Betty McKean Real Estate Team Frisco Lakes,"425 Old Newman Rd #203, Frisco, TX 75034",,,
OnDemand Realty | Frisco,"6160 Warren Pkwy Suite, 100, Frisco, TX 75034",,,
Coldwell Banker Realty - Frisco,3211 Internet Blvd Suite #150,,,
Real Estate by Joe Cloud & Associates,"5999 Custer Rd Suite 110-305, Frisco, TX 75035",,,
Ebby Halliday Realtors in Frisco,"1415 Legacy Dr # 100, Frisco, TX 75034",,,
Audrelyn Grace | Keller Williams Frisco Stars,audrelyngrace.kw.com,,,
Joe & Stephanie Clark brokered by Coldwell Banker Apex - Frisco TX,"11901 Dallas Pkwy #100, Frisco, TX 75034",,,
Realty Town at KW,"4783 Preston Rd #100, Frisco, TX 75035",,,
Fieldhouse Realty Group,"6155 Sports Village Rd ste 1000, Frisco, TX 75033",,,
Sankalp Realty,8195 Custer Rd suite 200 A-04,,,
Elite Realtors Group - Texas Premier Realty,"2849 Greenway Dr, Frisco, TX 75034",,,
Kirby Chandler - RE/MAX DFW Associates,"6959 Lebanon Rd #201, Frisco, TX 75034",,,
Calloway Real Estate,"8763 7th St Ste 200, Frisco, TX 75034",,,
Cindy Coffin - Realtor at Keller Williams Frisco,"4783 Preston Rd #100, Frisco, TX 75034",,,
Redfin | Dallas Real Estate Agents,"2611 Internet Blvd #201, Frisco, TX 75034",,,
JPAR - Frisco,"8812 Coleman Blvd, Frisco, TX 75034",,,
Radhi Shah Team - RE/MAX DFW Associates,"6959 Lebanon Rd, Frisco, TX 75034",,,
"Shila Ghademi, REALTOR | Century 21 Fine Homes & Estates","6255 Frisco Square Blvd Suite #100, Frisco, TX 75034",,,
Amazing Brokerage,,,,
"Coldwell Banker Apex, Realtors","11901 Dallas Pkwy #100, Frisco, TX 75034",,,
The Gurley Group Expert Real Estate Services Dallas Texas with eXp Realty LLC,"8100 Main St, Frisco, TX 75034",,,
"3:16 team REALTY - Mike + Loreena Yeo, REALTOR","615 Creek View Dr, Prosper, TX 75078",,,
Brian S. Curry - Collin County Homes,"6959 Lebanon Rd #201, Frisco, TX 75034",,,
Sunshine Realtors,"13355 Tall Grass Trail, Frisco, TX 75035",,,
"Lisa Henderson, Realtor","3211 Internet Blvd Suite #150, Frisco, TX 75034",,,
The Peoples Realty Group Inc,"5 Cowboys Way, Frisco, TX 75034",,,
Anna Xu | Keller Williams Realty - Frisco Stars,"4783 Preston Rd, Frisco, TX 75034",,,
"The Andrew Smith Team - Frisco, TX - eXp Realty",calendly.com,,,
"Live in Texas Team, REAL Brokerage","615 Main St Suite 114, Frisco, TX 75033",,,
Berkshire Hathaway HomeServices PenFed Realty Texas - Frisco,4280 Main St #100,,,
Texas Casa Realty LLC,"2770 Main St #288, Frisco, TX 75033",,,
"Alicia Chmielewski, Keller Williams Realty","4783 Preston Rd #100A, Frisco, TX 75034",,,
NextHome Premier Choice,"9355 John W. Elliott Dr Suite 25521, Frisco, TX 75033",,,
Ohlig Realty Group - Compass,"2595 Dallas Pkwy Suite 300, Frisco, TX 75034",,,
Weichert Realtors Suburban Properties,"7500 Stonebrook Pkwy Ste 100, Frisco, TX 75034",,,
Boulder Creek Properties,"122-124 Rose Ln #501, Frisco, TX 75034",,,
"Homes on the Lake Realty, LLC","2831 Eldorado Pkwy, Frisco, TX 75033",,,
"Gravitas Property Group - Doug Pillard, Broker Associate -JPAR Real Estate","8812 Coleman Blvd, Frisco, TX 75034",,,
Star Premier Real Estate,"6160 Warren Pkwy #100, Frisco, TX 75034",,,
Frank Soraya - The Orange Realty,"6959 Lebanon Rd Suite#107, Frisco, TX 75034",,,
The Wanda Charles Group,"3211 Internet Blvd Suite #150, Frisco, TX 75034",,,
Gary Group Realty,"6136 Frisco Square Blvd Suite 400, Frisco, TX 75034",,,
"Danielle Belair, REALTOR-Broker Associate | Monument Realty","One Cowboys Way #571, Frisco, TX 75034",,,
Lillian Kang - Keller Williams Frisco Stars,"4783 Preston Rd #100, Frisco, TX 75034",,,
Starcrest Realty LLC,"1125 Legacy Dr #250, Frisco, TX 75034",,,
"Rene Burchell, Realtor® c/o Coldwell Banker Apex, Realtors®","11901 Dallas Pkwy Suite 100, Frisco, TX 75034",,,
"Kim Bartholomew, REALTOR® - The Cannon Team | Keller Williams Realty","5933 Preston Rd #300, Frisco, TX 75034",,,
"Navigate Management Company - Frisco, TX",6136 Frisco Square Blvd Suite 400,,,
Local Group,"11901 Dallas Pkwy #100a, Frisco, TX 75034",,,
"Rex Real Estate, Inc","12400 Preston Rd, Frisco, TX 75033",,,
Newman Real Estate Inc,"9801 Camfield Way St, Frisco, TX 75033",,,
MMW Realty Monica Maynard Wood,mmwrealty.com,,,
Johnston Real Estate Group,3211 Internet Blvd Suite #150,,,
Cresa,One Cowboys Way Suite 350,,,
"Worldwide Commercial, PLLC","1415 Legacy Dr #300, Frisco, TX 75034",,,
Ajay Prabhu - Realtor,"6948 Mount Hawley Rd, Frisco, TX 75035",,,
Kristi Moore | Keller Williams Frisco Star,kristimoore.kw.com,,,
Jennifer Day - Realtor - Coldwell Banker Realty,"3211 Internet Blvd Suite #150, Frisco, TX 75034",,,
Youzhinuo (Hongwei) Realty Group,"5858 Main St #140, Frisco, TX 75033",,,
Perfect Realty Partners,"4433 Punjab Way, Frisco, TX 75033",,,
Brad Kennerly Real Estate Sales and Property Management,"16356 Moss Haven Ln, Frisco, TX 75033",,,
OnePlus Realty Group,"8036 Preston Rd #602, Frisco, TX 75034",,,
Geni Manning Real Estate Group,"4783 Preston Rd #100, Frisco, TX 75034",,,
Summer Dale Realtor,"One Cowboys Way, Frisco, TX 75034",,,
CityScape Realty,"12044 Shoal Creek Dr, Frisco, TX 75035",,,
Fred Villa RE/MAX Realtor,"6959 Lebanon Rd #201, Frisco, TX 75034",,,
Stevie Gibbons Realtor CB Apex Frisco Tx,"11901 Dallas Pkwy #100G, Frisco, TX 75034",,,
"Harman Cheema, Realtor | Monument Realty","1 Cowboys Way St 160, Frisco, TX 75034",,,
"Juan Aguilar, GRI - REALTOR with Coldwell Banker Realty","8501 Wade Blvd #1310, Frisco, TX 75034",,,
Keller Williams Dallas Preston Road,18333 Preston Rd #100,,,
"Compass- Alex Maloney, REALTOR","7366 Texas Rangers Dr #3104, Frisco, TX 75034",,,
Daniel Brenner | Dallas Holistic Realtor | Engel & Völkers Frisco | Certified Building Biology Advocate,"5 Cowboys Way Flr 3 Ste 300, Frisco, TX 75034",,,
"Cande Green, Realtor","11955 Dallas Pkwy Ste. 300, Frisco, TX 75033",,,
North Forest Office Space,4645 Avon Ln Suite 150,,,
Engel & Völkers Frisco,"5 Cowboys Way, Frisco, TX 75034",,,
EBR Realty Group,"4008 Vista Rd # C104, Pasadena, TX 77504",,,
RE/MAX 5 Star Realty,4802 East Sam Houston Pkwy S # 150,,,
EBR Realty Group,"4008 Vista Rd # C104, Pasadena, TX 77504",,,
Prime Realty Group,"1109 Fairmont Pkwy, Pasadena, TX 77504",,,
MetroPlus Realty,"4804 Fairmont Pkwy, Pasadena, TX 77505",,,
RISE Texas Real Estate,4222 Vista Rd B,,,
Natalie Torres Real Estate Agent,3517 Longwood Dr,,,
Alice Shirley Real Estate,"2318 Burke Rd, Pasadena, TX 77502",,,
Omar Scanu Realtor - RE/MAX 5 Star Realty,"4802 East Sam Houston Pkwy S #150, Pasadena, TX 77505",,,
The Agency Team,"2125 Strawberry Rd, Pasadena, TX 77502",,,
"Tony Novoa, Realtor - RE/MAX 5 Star Realty","4802 East Sam Houston Pkwy S #150, Pasadena, TX 77505",,,
Qualified Properties,"4222 Vista Rd A, Pasadena, TX 77504",,,
Glenn Parmlee Real Estate Services,"4706 Vista Rd, Pasadena, TX 77505",,,
David Brown Properties,"6534 Trimstone Dr, Pasadena, TX 77505",,,
Advance Regional Agency LLC,"3119 Hays St, Pasadena, TX 77503",,,
Property Kings,"3003 Strawberry Rd, Pasadena, TX 77502",,,
1st Texas Realtors,"957 East Nasa Parkway, Houston, TX 77058",,,
Better Homes and Gardens Real Estate Gary Greene - Bay Area,"1790 E NASA Pkwy, Houston, TX 77058",,,
Baker Realty Group,"2202 Strawberry Rd, Pasadena, TX 77502",,,
G-Sell Realty Group,"4802 East Sam Houston Pkwy S, Pasadena, TX 77505",,,
Ramos Realty Group,"2930 Spencer Hwy, Pasadena, TX 77504",,,
Roxie Keeton - Vive Realty,"4802 East Sam Houston Pkwy S #150, Pasadena, TX 77505",,,
Century Properties Real Estate,"16821 Buccaneer Ln #226, Houston, TX 77058",,,
Propiedades Victoria Realty,"909 Main St, Pasadena, TX 77506",,,
Compra Casa En Houston,"4902 Summer Oak Dr, Pasadena, TX 77505",,,
The Bly Team - Deborah Bly - eXp Realty,"217 E Main St, League City, TX 77573",,,
Lincoln Property Co,"3801 Vista Rd Ste 200, Pasadena, TX 77504",,,
RPG Home Team,"1415 Shaver St Suite A, Pasadena, TX 77502",,,
Pat Lowery Real Estate,"Pasadena, TX 77505",,,
John A Campbell-Commercial Properties,"1313 S Houston Rd, Pasadena, TX 77502",,,
Platinum One Properties,"7122 Coldstream Dr, Pasadena, TX 77505",,,
INNOVA Realty,"825 Fairmont Pkwy, Pasadena, TX 77504",,,
The Home Sweet Team,,,,
Maria Bish- Vive Realty,"4802 East Sam Houston Pkwy S #150, Pasadena, TX 77505",,,
Gei Buy Houses in Pasadena,"1804 Peachwood Dr, Pasadena, TX 77502",,,
Dodie Gober - Realtor - Re/Max 5 Star Realty,remax.com,,,
Houston Sell Your Home,"1414 S Richey St #15, Pasadena, TX 77502",,,
Spencer Business Center,"5041 Spencer Hwy Suite#303, Pasadena, TX 77505",,,
"Edna Pena, Realtor RE/MAX 5 Star Realty","4802 East Sam Houston Pkwy S, Pasadena, TX 77505",,,
Coastal Reconstruction Services,2822 Du Pont St,,,
Brandon Boutté with Remax 5 Star Realty,"4802 East Sam Houston Pkwy S #150, Pasadena, TX 77505",,,
SPACE CITY REALTY,,,,
Pasadena Houston Real Estate,"273 Pasadena Town Square Mall, Pasadena, TX 77506",,,
RE/MAX: Juli Morman,4802 East Sam Houston Pkwy S #150,,,
Town Square Apartments,"1123 Witter St, Pasadena, TX 77506",,,
Willow Springs Apartments,"3402 Preston Ave, Pasadena, TX 77505",,,
Crenshaw Grand,"5400 Crenshaw Rd, Pasadena, TX 77505",,,
Red Pines Apartments,"3823 Red Bluff Rd, Pasadena, TX 77503",,,
Camino Del Sol,"1120 Red Bluff Rd, Pasadena, TX 77506",,,
The Life at Park View,"2730 Lafferty Rd, Pasadena, TX 77502",,,
Broadwater,"5045 Crenshaw Rd, Pasadena, TX 77505",,,
David Robles Real Estate Investor Coach,"4808 Fairmont Pkwy, Pasadena, TX 77505",,,
Linda Vista Apartments,"701 Preston Ave, Pasadena, TX 77503",,,
Weston Oaks Apartments,"1141 Burke Rd, Pasadena, TX 77506",,,
Hawthorne at Crenshaw,"4811 East Sam Houston Pkwy S, Pasadena, TX 77505",,,
Jasmine Park Apartments,"2701 Pasadena Blvd, Pasadena, TX 77502",,,
Texas Rent To Own Homes,"2410 Peach Ln, Pasadena, TX 77502",,,
The Audra O'Neal Team,"1650 Hwy 6 Suite 350, Sugar Land, TX 77478",,,
KW Southwest,"1650 Hwy 6 Suite 350, Sugar Land, TX 77478",,,
Home Dream Solutions LLC,"1210 Bainbridge Dr, Sugar Land, TX 77479",,,
"Bret Wallace, Realtor","3616 Hwy 6, Sugar Land, TX 77478",,,
Coldwell Banker Realty - Sugar Land,"2109-D, Hwy 6, Sugar Land, TX 77479",,,
RE/MAX Fine Properties:,3616 Hwy 6,,,
"Angie Farish, Spanish Speaking REALTOR","1650 Hwy 6 Suite 350, Sugar Land, TX 77478",,,
REALM Real Estate Professionals - SUGAR LAND,"14090 Southwest Fwy #102, Sugar Land, TX 77478",,,
Discovered Homes Inv. Inc.,"800 Bonaventure Wy STE 107, Sugar Land, TX 77479",,,
Robbie Jansky - Realtor,"1650 Hwy 6, Sugar Land, TX 77479",,,
Susan Greer Group Realtors,"2323 Town Ctr Dr, Sugar Land, TX 77478",,,
Aqeel Properties Group,"1650 Hwy 6 Suite 350, Sugar Land, TX 77478",,,
"The Stewart Team, Compass RE Texas","101 Southwestern Blvd Ste 135, Sugar Land, TX 77478",,,
Berkshire Hathaway HomeServices Premier Properties,"52 Sugar Creek Center Blvd, Sugar Land, TX 77478",,,
Om Realty Group,"800 Bonaventure Wy Ste 134, Sugar Land, TX 77479",,,
The Cathy Stubbs Team,"14141 Southwest Fwy Suite #135, Sugar Land, TX 77478",,,
Laura and Duane Parks - Keller Williams - Lonestar Team,"1650 Hwy 6 Suite 350, Sugar Land, TX 77478",,,
Hampson Properties,"407 Julie Rivers Dr, Sugar Land, TX 77478",,,
Johnna Johnson Properties Inc,instacard.co,,,
THE ROYAL AGENCY,"4771 Sweetwater Blvd #110, Sugar Land, TX 77479",,,
Caskey Realty | Joanie Caskey | Realtor,2245 Texas Dr #300,,,
Space City Team,"1650 Hwy 6, Sugar Land, TX 77478",,,
Sugar Land Tx Real Estate - Tamborrel Properties,"14090 Southwest Fwy #300, Sugar Land, TX 77478",,,
Living Houston,"131 Brooks St Suite 100, Sugar Land, TX 77478",,,
Kay Harris Real Estate,"3616 Hwy 6, Sugar Land, TX 77478",,,
RP Real Estate,"245 Commerce Green Blvd Suite 151, Sugar Land, TX 77478",,,
Lina Chou Group at RE/MAX FINE PROPERTIES,"3616 Hwy 6, Sugar Land, TX 77478",,,
Better Homes and Gardens Real Estate Gary Greene - Sugar Land,"2323 Town Ctr Dr, Sugar Land, TX 77478",,,
Fort Bend Real Estate Corporation,8410 Hwy 90 Alt A,,,
Forever Realty,"2245 Texas Dr #300, Sugar Land, TX 77479",,,
Triad One Realty,"10903 Coldwater Bridge Ct, Sugar Land, TX 77498",,,
77 Sugar Creek,"77 Sugar Creek Center Blvd, Sugar Land, TX 77478",,,
Remax Southwest,14905 Southwest Fwy,,,
The Nimesh Patel Group at RE/MAX Fine Properties,"3616 Hwy 6, Sugar Land, TX 77478",,,
"Julie Moise, Realtor","4500 Hwy 6, Sugar Land, TX 77478",,,
"Karla Arjona, Realtor","2109 Hwy 6 d, Sugar Land, TX 77478",,,
"Sherae Smith, REALTOR (Connect Realty)","12808 W Airport Blvd Suite 340, Sugar Land, TX 77478",,,
Halona Realty,3536 Hwy 6,,,
The Real Estate Direct Group,"14090 Southwest Fwy #300, Sugar Land, TX 77478",,,
Bernadette Arzu - REALTOR,"1650 Hwy 6 Suite 350, Sugar Land, TX 77478",,,
Justin Duffield,"1650 Hwy 6 Suite 350, Sugar Land, TX 77479",,,
Schwing Sugar Land Properties,"26 Farrell Ridge Dr, Sugar Land, TX 77479",,,
House Buyers Texas - Sell My House Fast Sugar Land,"13139 Jess Pirtle Blvd, Sugar Land, TX 77478",,,
Realty Associates,"77 Sugar Creek Center Blvd Suite 600, Sugar Land, TX 77478",,,
"Prime Properties - Sugar Land Living - Stephanie Nelson, Broker",sugarlandliving.com,,,
Colliers,,,,
Todd Knudson Re/Max Southwest,"14905 Southwest Fwy, Sugar Land, TX 77478",,,
K.C. Lam Re/Max Southwest Pro,"14905 Southwest Fwy Suite 100, Sugar Land, TX 77478",,,
Newland Realty LLC,"3536 Hwy 6 #155, Sugar Land, TX 77478",,,
Rubicon Realty Group,"300 Promenade Wy, Sugar Land, TX 77478",,,
Barkley Peschel - Colliers International,"2277 Plaza Dr suite 175, Sugar Land, TX 77479",,,
"Landmark Properties And Glen Gill, Broker","6114 Ashford Falls Ln, Sugar Land, TX 77479",,,
"Jack Bloor, Realtor - All City Real Estate","3616 Hwy 6, Sugar Land, TX 77478",,,
Arthur Confait: Realtor,2109 Hwy 6 d,,,
RE/Max Southwest - Christina Lepovitz Pickell - Pickell Properties,14905 Southwest Fwy,,,
RE/MAX Fine Properties: The Sansone Group,3616 Hwy 6,,,
Bounds Realty Group by eXp Realty,"225 Matlage Way, Sugar Land, TX 77487",,,
Realty Lifestyles,77 Sugar Creek Center Blvd Suite 600,,,
"Karina Magalong, Houston Area Realtor (KW Southwest)","1650 Hwy 6 Suite 350, Sugar Land, TX 77478",,,
Lupita Decal Realtor with Keller Williams,"1650 Hwy 6 Suite 350, Sugar Land, TX 77478",,,
Urbanesque Real Estate LLC,"800 Bonaventure Wy, Sugar Land, TX 77479",,,
Sammy Younis - Aida Younis Team,"14905 Southwest Fwy, Sugar Land, TX 77478",,,
Gayle Daniel Realty,"14905 Southwest Fwy, Sugar Land, TX 77478",,,
"Weichert, Realtors - The Murray Group","4655 Sweetwater Blvd #675, Sugar Land, TX 77479",,,
Hometown America Incorporated,"800 Bonaventure Wy Suite 150, Sugar Land, TX 77479",,,
Real Stake,"14090 Southwest Fwy #300, Sugar Land, TX 77478",,,
Laura Larson - Your Home Girl,"2323 Town Ctr Dr, Sugar Land, TX 77478",,,
Sugar Land Homes for Sale,"4500 Hwy 6, Sugar Land, TX 77478",,,
MontLargo Properties,"2299 Lone Star Dr, Sugar Land, TX 77479",,,
"John M Munoz, MBA Broker: Real Estate Champion","14905 Southwest Fwy, Sugar Land, TX 77478",,,
Sugar Land Property Management,"1650 Hwy 6 Suite 350, Sugar Land, TX 77478",,,
ICO Commercial,"2333 Town Ctr Dr #300, Sugar Land, TX 77478",,,
Kobe Xin - eXp Realty Sponsor (Investor Agent Team),"2245 Texas Dr #300, Sugar Land, TX 77479",,,
Gary Wander,"14905 Southwest Fwy, Sugar Land, TX 77478",,,
Marti Pattinson (MartiP) REALTOR | Realm Real Estate Professionals,"14090 Southwest Fwy #102, Sugar Land, TX 77478",,,
"Peoples Properties: Suzette Peoples, Owner/Broker","3695 Hwy 6 #113, Sugar Land, TX 77478",,,
Home Hunter Houston (powered by: RE/MAX Southwest | Andrea Dillahunty & Team),"14905 Southwest Fwy, Sugar Land, TX 77478",,,
K 2 Realty Inc,"602 Brooks St, Sugar Land, TX 77478",,,
Keller Williams SW - Rylie Parks,1650 Hwy 6 Suite 350,,,
ClientFirstUs,"6607 Scarlet Maple Ct, Sugar Land, TX 77479",,,
Dr Sean Realty,"16807 Rustic Colony Dr, Sugar Land, TX 77479",,,
Pepper Property of Texas at RE/MAX,"14905 Southwest Fwy, Sugar Land, TX 77478",,,
KW Commercial Division - Mike Wong,"1650 Hwy 6 Suite 350, Sugar Land, TX 77478",,,
yamrealestate,"1650 Hwy 6, Sugar Land, TX 77478",,,
Vanita Zano-Realtor,"77 Sugar Creek Center Blvd Ste. 600, Sugar Land, TX 77478",,,
Kevin Talbot Real Estate,"1650 Hwy 6, Sugar Land, TX 77478",,,
Curtis Warren,"14905 Southwest Fwy, Sugar Land, TX 77478",,,
"JD Realty Advisors, LLC.",,,,
Dreams Come True Realty,"4899 Hwy 6 #206b, Missouri City, TX 77459",,,
"Shah Companies, Inc.","4660 Sweetwater Blvd #300, Sugar Land, TX 77479",,,
Texas American Title Company,"4610 Sweetwater Blvd Suite 100, Sugar Land, TX 77479",,,
Prime Properties,"16107 Kensington Dr, Sugar Land, TX 77479",,,
GoldenPalm International LLC,"14019 Southwest Fwy, Sugar Land, TX 77478",,,
LaDonna Parker-Realtor,"1650 Hwy 6 Suite 350, Sugar Land, TX 77478",,,
White|House Global Properties,3130 Grants Lake Blvd Suite 16533,,,
RE/MAX Southwest - Pamela Fitzgerald,14905 Southwest Fwy Suite 100,,,
Texan Home Buyer,"3130 Grants Lake Blvd Suite 19394, Sugar Land, TX 77479",,,
Houston Luxe Properties Group,"1650 Hwy 6 Suite 350, Sugar Land, TX 77478",,,
Houser Realty Group,,,,
"Karine D'Souza, Realtor","1650 Hwy 6 Suite 350, Sugar Land, TX 77478",,,
Roger Alvarez-RE/MAX Fine Properties,"3616 Hwy 6, Sugar Land, TX 77478",,,
Arcadian Real Estate Group,"13131 Dairy Ashford Rd #150, Sugar Land, TX 77478",,,
Real Property Management Sugarland,"2245 Texas Dr #300, Sugar Land, TX 77479",,,
"Missouri City, Texas Real Estate","1650 Hwy 6, Sugar Land, TX 77478",,,
Galère Realty,"225 Matlage Way, Sugar Land, TX 77487",,,
Borrow Buy Sell Real Estate Team,"14090 Southwest Fwy #102, Sugar Land, TX 77478",,,
The Valmy Team - Professional Real Estate,"1650 Hwy 6 #350-7, Sugar Land, TX 77478",,,
Jo Anna Grenader- Keller Williams Realty,"1650 Hwy 6 Suite 350, Sugar Land, TX 77478",,,
TS Collective Solutions LLC,"15500 Voss Rd Suite 1066, Sugar Land, TX 77498",,,
Anne Davis — Cache Properties,"35 Ambleside Crescent Dr, Sugar Land, TX 77479",,,
#NAME?,11630 Oak Lake Park Dr,,,
PCD Planned Community Developers,"1 Fluor Daniel Dr Suite A1-40, Sugar Land, TX 77478",,,
Great Southwest Realty Services,"12946 Dairy Ashford Rd #400, Sugar Land, TX 77478",,,
Halona Real Estate,3536 Hwy 6,,,
Zoe Reyes,"1650 Hwy 6, Sugar Land, TX 77478",,,
Encore Fine Properties,"12440 Emily Ct Suite 402, Sugar Land, TX 77478",,,
The Sams Group,"14090 Southwest Fwy #300, Sugar Land, TX 77478",,,
Colony Place.,"4403 Hwy 6, Sugar Land, TX 77478",,,
,,,,
Veranda by Johnson Development,"23014 Henderson Row Dr, Richmond, TX 77469",,,
Wanda Pearson|Pearson Premier Group,"1650 Hwy 6, Sugar Land, TX 77478",,,
Candela by Johnson Development,"26631 Candela Heights Dr, Richmond, TX 77406",,,
Veranda by Johnson Development,"23014 Henderson Row Dr, Richmond, TX 77469",,,
Candela by Johnson Development,"26631 Candela Heights Dr, Richmond, TX 77406",,,
Veranda by Johnson Development,"23014 Henderson Row Dr, Richmond, TX 77469",,,
Lua Cayabyab Realtor Sugar Land/Houston 7+ years in the Business,"5825 New Territory Blvd #306, Sugar Land, TX 77479",,,
Benevides & Associates,"6530 Greatwood Pkwy Unit C, Sugar Land, TX 77479",,,
Your Home SOLD Guaranteed Realty - Shelly Salas,"2210 E Central Texas Expy unit 104, Killeen, TX 76543",,,
Homevets Realty LLC,2000 E Central Texas Expy,,,
Cloud Real Estate,"1703 S W S Young Dr, Killeen, TX 76543",,,
Prolific Realty LLC,"3700 S W S Young Dr #105, Killeen, TX 76542",,,
Graham Team Realtors,"2201 S W S Young Dr #1, Killeen, TX 76542",,,
Morris Real Estate,"1104 W Veterans Memorial Blvd, Killeen, TX 76541",,,
Linnemann Realty,"3402 S W S Young Dr, Killeen, TX 76542",,,
Carmen ​​Colόn Homes,"2703 E Stan Schlueter Loop Suite 103, Killeen, TX 76542",,,
Texas Bound Real Estate & Property Management,"3310 E Central TX Expwy, 209, Killeen, TX 76542",,,
Soldiers Of Real Estate LLC,"4000 Bacon Ranch Rd, Killeen, TX 76542",,,
"C.C. Harris Realtor - Fort Hood, TX","2710 S Fort Hood St, Killeen, TX 76542",,,
AJ Real Estate and Property Management,"2904 E Stan Schlueter Loop #C302, Killeen, TX 76542",,,
UNITED COUNTRY PREMIER PROPERTIES REAL ESTATE KILLEEN,"202 W Central Texas Expy, Killeen, TX 76541",,,
Stephen Harris Killeen - Pflugerville Realtor,"1900 E Elms Rd Suite 100 A, Killeen, TX 76542",,,
"Killeen Real Estate - Richard Overall, REALTOR UNITED COUNTRY PREMIER PROPERTIES","202 W Central Texas Expy, Killeen, TX 76541",,,
Rely Realty LLC,,,,
Empyral Group Realtors,"2602 S Fort Hood St Suite 100A, Killeen, TX 76542",,,
Georgetown Heights,"468 Northwood Dr, Georgetown, TX 78628",,,
The Myles Group,"2700 S Fort Hood St Ste F, Killeen, TX 76542",,,
Sweetwaters Realty LLC,2206 W Stan Schlueter Loop,,,
Shine Team Realtors,"201 E Central Texas Expy Ste 1900, Harker Heights, TX 76548",,,
RE/MAX Family,1806 W Stan Schlueter Loop,,,
Raye Mayhorn - Realty Executives of Killeen,"2710 S Fort Hood St, Killeen, TX 76542",,,
Erik Martinez Realtor - Coldwell Banker Realty Killeen,2710 S Clear Creek Rd Ste 115,,,
Barb Williams Upper Room Realty Group at All City Real Estate,"1900 E Elms Rd #100a, Killeen, TX 76542",,,
Hacienda Texas Realty,"211 E Avenue D, Killeen, TX 76541",,,
Blessed Properties,"At the intersection of Little Nolan and Cunningham, 3100 Little Nolan Rd Bldg 1, Killeen, TX 76542",,,
Coldwell Banker Realty - Killeen,"2710 S Clear Creek Rd Ste 115, Killeen, TX 76549",,,
"Lone Star Realty & Property Management, Inc","1020 W Jasper Dr, Killeen, TX 76542",,,
Julie James - REALTOR® - Esperanza Realty Group at Coldwell Banker Realty,"2710 S Clear Creek Rd Ste 115, Killeen, TX 76549",,,
Isbell Rentals,"1200 E Stan Schlueter Loop #100a, Killeen, TX 76542",,,
Jim Wright Company,"3800 S W S Young Dr #101, Killeen, TX 76542",,,
"REAL Star Property Management, LLC","3901 E Stan Schlueter Loop Ste 101, Killeen, TX 76542",,,
Hustle House Realty,"329 E Avenue D, Killeen, TX 76541",,,
Dwell in Texas Realty,"2904 E Stan Schlueter Loop Box #1, Killeen, TX 76542",,,
Killeen Texas Homes For Sale,"1711 E Central Texas Expy Suite 104a, Killeen, TX 76541",,,
i35 Group (Keller Williams Realty),"300 W Central TX Expy, Killeen, TX 76541",,,
Salas Team Realtors,2210 E Central Texas Expy,,,
EXIT Heart of Texas Realty,"4003 W Stan Schlueter Loop Ste 6, Killeen, TX 76549",,,
Amanda Brown Realty,"2710 S Clear Creek Rd Ste 115, Killeen, TX 76549",,,
Harker Heights Properties LLC,"326 Morgan St B-1, Harker Heights, TX 76548",,,
Rancier Realty,"907 Root Ave, Killeen, TX 76541",,,
Dominic Vo at Vo Realty Group-All City Real Estate,"708 E Elms Rd, Killeen, TX 76542",,,
Level Up Real Estate,"308 N Fort Hood St, Killeen, TX 76541",,,
Guerrero Rentals,"1806 W Stan Schlueter Loop, Killeen, TX 76549",,,
Ron Cooks - Broker,"1900 E Elms Rd suite a, Killeen, TX 76542",,,
Hunter Rentals & Sales,"1503 W Stan Schlueter Loop, Killeen, TX 76549",,,
JPAR - Killeen,"4102 S Clear Creek Rd Ste 111, Killeen, TX 76549",,,
NextHome Tropicana Realty,"105 E Avenue B, Killeen, TX 76541",,,
Paradise Realty & Investments,"2210 E Central Texas Expy unit 205, Killeen, TX 76543",,,
Idan's realty / real estate agent,"3211-1 Grider Cir, Killeen, TX 76543",,,
Price Realty Group,"2901 W Stan Schlueter Loop Ste 400, Killeen, TX 76549",,,
Bluffview Real Estate,"4300 Chantz Dr, Killeen, TX 76542",,,
Central TX First Team REALTORS,"100 E Central Texas Expy Ste 102, Harker Heights, TX 76548",,,
Courtney Brewer,"2701 S Clear Creek Rd Suite #115, Killeen, TX 76549",,,
Gold Medal Realty,"1002 E Elms Rd Ste 104, Killeen, TX 76542",,,
CTX Premier Realty,"2403 Bacon Ranch Rd suite 200, Killeen, TX 76542",,,
Century 21 Premier Realtors,"1450 Parnell St, Copperas Cove, TX 76522",,,
Longhorn Properties,"2409 W Stan Schlueter Loop, Killeen, TX 76549",,,
The Agents Premiere Realty Group,4200 E Stan Schlueter Loop Ste D,,,
Centex Sunshine Realty,"3000 Old FM 440 Rd Suite 106, Killeen, TX 76549",,,
M J Craig & Associates,"2201 S W S Young Dr 111 A, Killeen, TX 76543",,,
John Reider Properties,"455 E Central Texas Expy #101, Harker Heights, TX 76548",,,
Sandee Payne - REALTOR - Designed 2 Sell Real Estate Group,"220 Commercial Dr Suite A, Harker Heights, TX 76548",,,
"Mary Ann Daniell, Realtor","2710 S Clear Creek Rd, Killeen, TX 76549",,,
"Mike Johnson, REALTOR",,,,
"Holiday Homes Realty, Fred Garvin Rentals","5003 Saddle Ridge Dr #1, Killeen, TX 76549",,,
Five Hills Investors LLC,"4110 S Clear Creek Rd Ste 102, Killeen, TX 76549",,,
Hartland Realty,"110 W Rancier Ave #3347, Killeen, TX 76541",,,
StarPointe Realty Management,"6300 S Fort Hood St, Killeen, TX 76542",,,
Armadillo Properties,"4003 W Stan Schlueter Loop Ste 6, Killeen, TX 76549",,,
redoak Real Estate,"114 Farm to Market 2410 a, Harker Heights, TX 76548",,,
"Grace Sanchez Real Estate Team- All City Real Estate Co., LTD","508 S Main St, Copperas Cove, TX 76522",,,
"Wright Home Selling Team | Timothy and Megan Wright-Belton, Texas Realtors","1604 S W S Young Dr Suite 3, Killeen, TX 76543",,,
"Colt Real Estate Group, LLC","4205 S Fort Hood St Suite 201, Killeen, TX 76549",,,
"Aflab Realtors AFLAB Group, LLC","1001 Jackson St, Killeen, TX 76541",,,
The Barrientos Group - KW Advantage,"1711 E Central Texas Expy, Killeen, TX 76541",,,
"Yoko T Jones, Licensed TX REALTOR at All City Real Estate",2100 E Stan Schlueter Loop Ste H,,,
Liberty Home Buyers,"3310 Valencia Dr, Killeen, TX 76542",,,
Quit Ly - Realtor @ Dash Realty,"1711 E Central Texas Expy Ste.304, Killeen, TX 76542",,,
Casa Realty,"132 2nd St, Charlestown, IN 47111",,,
RE/MAX First Choice,4524 S W S Young Dr,,,
"Bonafide Realty, LLC","2705 E Stan Schlueter Loop Unit 104, Killeen, TX 76542",,,
"Frank Adams - Killeen, Realtor - brokered by Lpt Realty",calendly.com,,,
ERA Colonial Real Estate,"777 Indian Trail, Harker Heights, TX 76548",,,
TBS World Family Group LLC,"310 W Central Texas Expy #3, Killeen, TX 76541",,,
Newby Realty Group - We Buy Central Texas,"810 N W S Young Dr Ste 105, Killeen, TX 76543",,,
"Onesta Real Estate Investors, LLC","2809 W Stan Schlueter Loop, Killeen, TX 76549",,,
home network realty,"501 Bellaire Dr, Killeen, TX 76541",,,
"Jiles Realty, LLC",(254) 317-2978,,,
texhomefinder,"4205 Maid Marian Cir, Killeen, TX 76549",,,
"Always Here Properties, LLC","400 E Central Texas Expy Suite B, Harker Heights, TX 76548",,,
Deerwood Estates,,,,
Killeen Texas Real Estate,"202 W Central Texas Expy, Killeen, TX 76541",,,
The Real Estate Home Team/ Home Team Rentals,"1994 Charlestown New Albany Pike, Jeffersonville, IN 47130",,,
Premier Properties,"310 W Central Texas Expy, Killeen, TX 76541",,,
"RE/MAX RedZone REALTORS: Michael McGehee, REALTOR",302 Millers Crossing #11,,,
"Maxam Team, RE/MAX RedZone, REALTORS®",1002 Wales Dr,,,
Texas Realty Cafe,"3010 Illinois Ave #100, Killeen, TX 76543",,,
Greater Texas Housing Solutions,"1711 E Central Texas Expy suite 106a, Killeen, TX 76541",,,
Ashmore Group Inc,"2102 Stone Ave, Killeen, TX 76541",,,
L & S Realty,,,,
ACE Group - All City Real Estate,"1900 E Elms Rd suite A, Killeen, TX 76542",,,
"Tanessa Roberts, REALTOR ️","2710 S Clear Creek Rd Ste 115, Killeen, TX 76549",,,
TradeMark Properties,"3400 E Central Texas Expy, Killeen, TX 76542",,,
Olympic Real Estate,"605 N Gray St # 4, Killeen, TX 76541",,,
Mustardseed Investments Multifamily LLC,"2710 S Fort Hood St, Killeen, TX 76542",,,
Texas Real Estate,"311 E Stan Schlueter Loop, Killeen, TX 76542",,,
N2 Buying Homes,"6410 Tungsten Dr, Killeen, TX 76542",,,
RealEstateKilleen,2710 S Fort Hood St,,,
GIA RE Group-The Real Estate Ranger Team,"3045 Stillhouse Lake Rd Ste 111, Harker Heights, TX 76548",,,
Texas Heritage Real Estate,"3001 W Stan Schlueter Loop, Killeen, TX 76549",,,
We Buy Killeen Houses,"2512 Greenbriar Dr, Killeen, TX 76543",,,
AJH Management Company (Plaza Leasing Office)TEXAS ONLY,"2201 S W S Young Dr STE 116B, Killeen, TX 76543",,,
Laray Properties,1519 Florence Rd # 10,,,
Expert Rentals & Property Management,"2210 E Central Texas Expy Ste 101, Killeen, TX 76543",,,
TRG Realty / Property Management,2602 S Fort Hood St Ste 100,,,
Yowell Business Center,"2916 Illinois Ave, Killeen, TX 76543",,,
"Anita Riendeau, Associate Broker - Realty Executives of Killeen","2710 S Fort Hood St, Killeen, TX 76542",,,
All City Real Estate Monika's Edition,1900 E Elms Rd suite A,,,
Sandra Bobb Coldwell Banker Realty,"2710 S Clear Creek Rd Ste 115, Killeen, TX 76549",,,
