Store,Street,City,State,Zip
TJ Maxx,320 S Colonial Dr,Alabaster,AL,35007
TJ Maxx,7360 US Hwy 431,Albertville,AL,35950
TJ Maxx,1061 Kelli Drive,Athens,AL,35611
TJ Maxx,4917 Promenade Pkwy S500,Bessemer,AL,35022
TJ Maxx,1648 Gadsden Highway,Birmingham,AL,35235
TJ Maxx,5025 Highway 280S,Birmingham,AL,35242
TJ Maxx,1908 Marktplatz Center SW,Cullman,AL,35055
TJ Maxx,6850 US Highway 90,Daphne,AL,36526
TJ Maxx,1107 Beltline Road SE,Decatur,AL,35601
TJ Maxx,3500 Ross Clark Cir,Dothan,AL,36303
TJ Maxx,616 Boll Weevil Cr,Enterprise,AL,36330
TJ Maxx,187 Cox Creek Parkway,Florence,AL,35630
TJ Maxx,2601 South McKenzie St.,Foley,AL,36535
TJ Maxx,316 East Meighan Blvd,Gadsden,AL,35903
TJ Maxx,655 Fieldstown Rd,Gardendale,AL,35071
TJ Maxx,1646 Montgomery Hwy,Hoover,AL,35216
TJ Maxx,975 Airport Rd.,Huntsville,AL,35802
TJ Maxx,606 US Hwy 78,Jasper,AL,35501
TJ Maxx,7696 Highway 72 NW,Madison,AL,35757
TJ Maxx,3940B Airport Blvd.,Mobile,AL,36608
TJ Maxx,2751 Eastern Bypass,Montgomery,AL,36117
TJ Maxx,2185 Tigertown Parkway,Opelika,AL,36801
TJ Maxx,300 Oxford Exchange Blvd.,Oxford,AL,36203
TJ Maxx,2805 Dr John Haynes Dr,Pell City,AL,35125
TJ Maxx,2748 Legends Pkwy,Prattville,AL,36066
TJ Maxx,24540 John T Reid Pkwy SE,Scottsboro,AL,35768
TJ Maxx,145 MCS Blvd,Sylacauga,AL,35150
TJ Maxx,1307 US Hwy 231,Troy,AL,36081
TJ Maxx,2600 McFarland Blvd,Tuscaloosa,AL,35405
TJ Maxx,2360 Harrison St,Batesville,AR,72501
TJ Maxx,20440 I-30 North,Benton,AR,72019
TJ Maxx,655 Elsinger Blvd,Conway,AR,72032
TJ Maxx,1835 North West Ave,El Dorado,AR,71730
TJ Maxx,406 E. Joyce Boulevard,Fayetteville,AR,72703
TJ Maxx,8365 Rogers Avenue,Fort Smith,AR,72903
TJ Maxx,420 Cornerstone Blvd.,Hot Springs,AR,71913
TJ Maxx,1235 S. Caraway Road,Jonesboro,AR,72401
TJ Maxx,9100 N. Rodney Parham Rd.,Little Rock,AR,72205
TJ Maxx,40 Plaza Way,Mountain Home,AR,72653
TJ Maxx,4132 East McCain Blvd,North Little Rock,AR,72117
TJ Maxx,2203 S Promenade Blvd,Rogers,AR,72758
TJ Maxx,3069 East Main Street,Russellville,AR,72801
TJ Maxx,1301 Janet St,Searcy,AR,72143
TJ Maxx,2660 Chandler Blvd.,Chandler,AZ,85224
TJ Maxx,853 Baseline Road,Gilbert,AZ,85233
TJ Maxx,3787 South Gilbert Rd,Gilbert,AZ,85297
TJ Maxx,1855 N Pebble Creek Pkwy,Goodyear,AZ,85395
TJ Maxx,7750 South 59th Avenue,Laveen,AZ,85339
TJ Maxx,6555 E Southern Ave,Mesa,AZ,85206
TJ Maxx,7655 West Bell Road,Peoria,AZ,85382
TJ Maxx,4511 East Cactus Road,Phoenix,AZ,85032
TJ Maxx,2501 W Happy Valley Rd,Phoenix,AZ,85085
TJ Maxx,5671 E State Rt 69,Prescott Valley,AZ,86314
TJ Maxx,21566 S Ellsworth Loop Rd,Queen Creek,AZ,85142
TJ Maxx,18749 Nogales Hwy,Sahuarita,AZ,85629
TJ Maxx,15464 N.Frank Wright Blvd,Scottsdale,AZ,85260
TJ Maxx,4370 North Miller Road,Scottsdale,AZ,85251
TJ Maxx,13380 North Prasada Parkway,Surprise,AZ,85388
TJ Maxx,8030 N Cortaro Rd,Tucson,AZ,85743
TJ Maxx,9236 S Houghton Rd,Tucson,AZ,85747
TJ Maxx,6230 N.Oracle Road,Tucson,AZ,85704
TJ Maxx,6337 E. Broadway Blvd,Tucson,AZ,85710
TJ Maxx,2250 S Shore Ctr,Alameda,CA,94501
TJ Maxx,26781 Aliso Creek Rd,Aliso Viejo,CA,92656
TJ Maxx,8116E.Santa Ana Canyon Rd,Anaheim,CA,92808
TJ Maxx,550 N Euclid St,Anaheim,CA,92801
TJ Maxx,10650 Stockdale Hwy,Bakersfield,CA,93311
TJ Maxx,3412 Ming Avenue,Bakersfield,CA,93309
TJ Maxx,2500 East Imperial Highway,Brea,CA,92821
TJ Maxx,2450 Sand Creek Road,Brentwood,CA,94513
TJ Maxx,8201 On The Mall,Buena Park,CA,90620
TJ Maxx,1651 North Victory Pl,Burbank,CA,91505
TJ Maxx,3542 Jamison Way,Castro Valley,CA,94546
TJ Maxx,11151 183rd St,Cerritos,CA,90703
TJ Maxx,2540 Notre Dame Blvd.,Chico,CA,95928
TJ Maxx,4040 Grand Avenue,Chino,CA,91710
TJ Maxx,878 Eastlake Parkway,Chula Vista (Eastlake),CA,91915
TJ Maxx,675 West Herndon Ave,Clovis,CA,93611
TJ Maxx,2075 Diamond Blvd,Concord,CA,94520
TJ Maxx,4673 Clayton Road,Concord,CA,94521
TJ Maxx,390 McKinley St.,Corona,CA,92879
TJ Maxx,2300 Harbor Blvd.,Costa Mesa,CA,92626
TJ Maxx,11020 W. Jefferson Blvd.,Culver City,CA,90230
TJ Maxx,20730 Stevens Creek Blvd.,Cupertino,CA,95014
TJ Maxx,151 Serramonte Ctr,Daly City,CA,94015
TJ Maxx,4651 2nd St,Davis,CA,95618
TJ Maxx,9050 Apollo Way,Downey,CA,90242
TJ Maxx,4840 Dublin Boulevard,Dublin,CA,94568
TJ Maxx,9154 W. Stockton Blvd.,Elk Grove,CA,95758
TJ Maxx,216a El Camino Real,Encinitas,CA,92024
TJ Maxx,1274 Auto Park Way,Escondido,CA,92029
TJ Maxx,3300 Broadway St,Eureka,CA,95501
TJ Maxx,8874 Madison Avenue,Fair Oaks,CA,95628
TJ Maxx,5063 Business Center Dr,Fairfield,CA,94534
TJ Maxx,17144 Slover Ave,Fontana,CA,92337
TJ Maxx,18295 Brookhurst Street,Fountain Valley,CA,92708
TJ Maxx,43519 Boscell Road,Fremont,CA,94538
TJ Maxx,2097 West Shaw Avenue,Fresno,CA,93711
TJ Maxx,245 N Glendale Ave,Glendale,CA,91206
TJ Maxx,18045 Chatsworth Street,Granada Hills,CA,91344
TJ Maxx,14501 Ocean Gate Ave,Hawthorne,CA,90250
TJ Maxx,1200 East Park Street,Hollister,CA,95023
TJ Maxx,663 Foothill Blvd,La Canada,CA,91011
TJ Maxx,1220 W Imperial Hwy,La Habra,CA,90631
TJ Maxx,78-825 Highway 111,La Quinta,CA,92253
TJ Maxx,930 Groveland Ave,Lincoln,CA,95648
TJ Maxx,4490 Las Positas Road,Livermore,CA,94551
TJ Maxx,4150 E Carson St,Long Beach,CA,90808
TJ Maxx,2150 N. Bellflower Blvd,Long Beach,CA,90815
TJ Maxx,3650 M.L. King Jr. Blvd,Los Angeles,CA,90008
TJ Maxx,8487 W 3rd St,Los Angeles,CA,90048
TJ Maxx,277 Commerce Avenue,Manteca,CA,95336
TJ Maxx,30164 Haun Road,Menifee,CA,92584
TJ Maxx,12387 Limonite Ave,Mira Loma,CA,91752
TJ Maxx,27690 Santa Margarita Pky,Mission Viejo,CA,92691
TJ Maxx,3900 Sisk Road,Modesto,CA,95356
TJ Maxx,737 E Huntington Dr,Monrovia,CA,91016
TJ Maxx,808 New Los Angeles Ave.,Moorpark,CA,93021
TJ Maxx,472 Center Street,Moraga,CA,94556
TJ Maxx,12625 Frederick St,Moreno Valley,CA,92553
TJ Maxx,401 Vineyard Town Center,Morgan Hill,CA,95037
TJ Maxx,2725 Teller Road,Newbury Park,CA,91320
TJ Maxx,11758 Firestone Blvd,Norwalk,CA,90650
TJ Maxx,3817 Plaza Drive,Oceanside,CA,92056
TJ Maxx,1437 East Katella Ave,Orange,CA,92867
TJ Maxx,271 W. Esplanade Dr,Oxnard,CA,93030
TJ Maxx,72449 Highway 111,Palm Desert,CA,92260
TJ Maxx,2465 East Palm Canyon Road,Palm Springs,CA,92262
TJ Maxx,39433 10th Street West,Palmdale,CA,93551
TJ Maxx,455 South Lake Ave,Pasadena,CA,91101
TJ Maxx,2453 Golden Hill Rd,Paso Robles,CA,93446
TJ Maxx,401 Kenilworth Dr,Petaluma,CA,94952
TJ Maxx,1230 Fitzgerald Dr,Pinole,CA,94564
TJ Maxx,3959 Missouri Flat Road,Placerville,CA,95667
TJ Maxx,11530 4th St.,Rancho Cucamonga,CA,91730
TJ Maxx,1160 Hilltop Drive,Redding,CA,96003
TJ Maxx,27651-D San Bernardino Rd,Redlands,CA,92374
TJ Maxx,1401 Hawthorne Blvd,Redondo Beach,CA,90278
TJ Maxx,5440 Crossings Dr,Rocklin,CA,95677
TJ Maxx,24 Peninsula Center,Rolling Hills Estate,CA,90274
TJ Maxx,1850 Douglas Blvd,Roseville,CA,95661
TJ Maxx,2721 Marconi Ave,Sacramento,CA,95821
TJ Maxx,3621 N Freeway Blvd,Sacramento,CA,95834
TJ Maxx,277 East 40th St,San Bernardino,CA,92404
TJ Maxx,1251 Industrial Road,San Carlos,CA,94070
TJ Maxx,500 Camino De Estrella,San Clemente,CA,92672
TJ Maxx,11160 Rancho Carmel Rd,San Diego,CA,92128
TJ Maxx,4995 Clairemont Drive,San Diego,CA,92117
TJ Maxx,8550 Rio San Diego Dr,San Diego,CA,92108
TJ Maxx,3355 Rosecrans Street,San Diego (Point Loma),CA,92110
TJ Maxx,909 West Arrow Highway,San Dimas,CA,91773
TJ Maxx,5353 Almaden Expressway,San Jose,CA,95118
TJ Maxx,1825 Hillsdale Ave,San Jose,CA,95124
TJ Maxx,1600 Saratoga Ave,San Jose,CA,95129
TJ Maxx,1541 Froom Ranch Rd,San Luis Obispo,CA,93405
TJ Maxx,1850 South Grant St,San Mateo,CA,94402
TJ Maxx,588 W Francisco Blvd.,San Rafael,CA,94901
TJ Maxx,3951 Camino De La Plaza,San Ysidro,CA,92173
TJ Maxx,3900 S Bristol Street,Santa Ana,CA,92704
TJ Maxx,3201 Mission College Blvd.,Santa Clara,CA,95054
TJ Maxx,27107 McBean Parkway,Santa Clarita,CA,91355
TJ Maxx,19211 Golden Valley Rd,Santa Clarita,CA,91387
TJ Maxx,2270 South Bradley,Santa Maria,CA,93454
TJ Maxx,1251 4th Street,Santa Monica,CA,90401
TJ Maxx,2226 Cleveland Ave,Santa Rosa,CA,95403
TJ Maxx,9914 Mission Gorge Road,Santee,CA,92071
TJ Maxx,13773 Mono Ave,Sonora,CA,95370
TJ Maxx,2015 Lake Tahoe Blvd.,South Lake Tahoe,CA,96150
TJ Maxx,10822 Trinity Parkway,Stockton,CA,95219
TJ Maxx,18700 Ventura Blvd.,Tarzana,CA,91356
TJ Maxx,26427 Ynez Road,Temecula,CA,92591
TJ Maxx,5749 Rosemead Blvd.,Temple City,CA,91780
TJ Maxx,2891 Countryside Drive,Turlock,CA,95380
TJ Maxx,2951 El Camino Real,Tustin,CA,92782
TJ Maxx,2817 Park Ave,Tustin,CA,92782
TJ Maxx,1151 E 19th St,Upland,CA,91786
TJ Maxx,3040 N Dinuba Blvd,Visalia,CA,93291
TJ Maxx,535 North Grand Ave.,Walnut,CA,91789
TJ Maxx,1827 Ygnacio Valley Rd,Walnut Creek,CA,94598
TJ Maxx,6609 Fallbrook Ave,West Hills,CA,91307
TJ Maxx,8621 S. Sepulveda Blvd.,Westchester,CA,90045
TJ Maxx,30805 Thousand Oaks,Westlake Village,CA,91362
TJ Maxx,13560 Whittier Blvd,Whittier,CA,90605
TJ Maxx,33616 Yuciapa Blvd,Yucaipa,CA,92399
TJ Maxx,6352 S Central Street,Aurora,CO,80016
TJ Maxx,2350 So Parker Road,Aurora,CO,80231
TJ Maxx,6374 Promenade Pkwy,Castle Rock,CO,80108
TJ Maxx,3830 Bloomington St,Colorado Springs,CO,80922
TJ Maxx,98 Wadsworth Ave,Denver,CO,80226
TJ Maxx,800 S Camino Del Rio,Durango,CO,81301
TJ Maxx,4366 S. College Ave,Ft. Collins,CO,80525
TJ Maxx,2464 Hwy 6,Grand Junction,CO,81505
TJ Maxx,4110 Centerplace Drive,Greeley,CO,80634
TJ Maxx,9579 Univ Blvd.,Highlands Ranch,CO,80126
TJ Maxx,5152 S Wadsworth Blvd,Lakewood,CO,80123
TJ Maxx,5910 S University Blvd.,Littleton,CO,80121
TJ Maxx,4320 North Freeway Road,Pueblo,CO,81008
TJ Maxx,297 Summit Place,Silverthorne,CO,80498
TJ Maxx,510 Marshall Road,Superior,CO,80027
TJ Maxx,10456 Town Center Dr,Westminster,CO,80021
TJ Maxx,14265 Orchard Pky,Westminster,CO,80023
TJ Maxx,683 Farmington Avenue,Bristol,CT,06010
TJ Maxx,215 East Main St,Clinton,CT,06413
TJ Maxx,67 Newtown Rd,Danbury,CT,06810
TJ Maxx,581 Hartford Pike,Dayville,CT,06241
TJ Maxx,5 Main Street,East Hartford,CT,06118
TJ Maxx,68 Frontage Rd,East Haven,CT,06512
TJ Maxx,14 Hazard Ave Ste 20,Enfield,CT,06082
TJ Maxx,425 Tunxis Hill Cut Off,Fairfield,CT,06825
TJ Maxx,1600 Southeast Rd.,Farmington,CT,06032
TJ Maxx,124A Salmon Brook Street,Granby,CT,06035
TJ Maxx,670 Long Hill Road,Groton,CT,06340
TJ Maxx,2335 Dixwell Ave.,Hamden,CT,06514
TJ Maxx,470 Lewis Ave,Meriden,CT,06451
TJ Maxx,169 Danbury Road,New Milford,CT,06776
TJ Maxx,228 South Main Street,Newtown,CT,06470
TJ Maxx,135 Universal Drive North,North Haven,CT,06473
TJ Maxx,330 Connecticut Ave,Norwalk,CT,06854
TJ Maxx,624 West Main Street,Norwich,CT,06360
TJ Maxx,556 Boston Post Road,Orange,CT,06477
TJ Maxx,865 Bridgeport Ave,Shelton,CT,06484
TJ Maxx,100 Main Street,Southbury,CT,06488
TJ Maxx,875 Queen Street,Southington,CT,06489
TJ Maxx,77 South Main Street,Torrington,CT,06790
TJ Maxx,35 Talcottville Road,Vernon,CT,06066
TJ Maxx,943 Wolcott St U #2,Waterbury,CT,06705
TJ Maxx,1091-1095 Silas Deane Hwy,Wethersfield,CT,06109
TJ Maxx,95 Storrs Road,Willimantic (Mansfield),CT,06226
TJ Maxx,14 Danbury Road,Wilton,CT,06897
TJ Maxx,"601 13th St, NW",Washington,DC,20005
TJ Maxx,3254 M Street NW,Washington (Georgetown),DC,20007
TJ Maxx,1091 North Dupont Highway,Dover,DE,19901
TJ Maxx,1313 New Churchmans Road,Newark (Christiana),DE,19713
TJ Maxx,19563 Coastal Hwy S 2,Rehoboth Beach,DE,19971
TJ Maxx,5627 Concord Pike,Wilmington,DE,19803
TJ Maxx,380 South SR 434,Altamonte Springs,FL,32714
TJ Maxx,8903 Glades Rd,Boca Raton,FL,33434
TJ Maxx,388 N. Congress Ave,Boynton Beach,FL,33426
TJ Maxx,6100 14th Street West,Bradenton,FL,34207
TJ Maxx,2520 Brandon Blvd W.,Brandon,FL,33511
TJ Maxx,5260 Hwy 100E,Bunnell (Palm Coast),FL,32164
TJ Maxx,1502 Del Prado Blvd South,Cape Coral,FL,33990
TJ Maxx,1455 Semoran Boulevard,Casselberry,FL,32707
TJ Maxx,2541 Countryside Blvd.,Clearwater,FL,33761
TJ Maxx,2335 South Hwy 27,Clermont,FL,34711
TJ Maxx,1200 University Drive,Coral Springs,FL,33071
TJ Maxx,1730 S Bearing St.,Dania Beach,FL,33004
TJ Maxx,2040 S. University Drive,Davie,FL,33324
TJ Maxx,1115 Cornerstone Blvd S-M,Daytona Beach,FL,32117
TJ Maxx,3812 W Hillsboro Blvd,Deerfield Beach,FL,33442
TJ Maxx,2615 S. Woodland Blvd.,Deland,FL,32720
TJ Maxx,1626 S Federal Hwy,Delray Beach,FL,33483
TJ Maxx,6250 US Hwy 301 N,Ellenton,FL,34222
TJ Maxx,8014 Mediterranean Dr,Estero,FL,33928
TJ Maxx,1920 Cordova Rd,Fort Lauderdale,FL,33316
TJ Maxx,9370 Ben C Pratt,Fort Myers,FL,33966
TJ Maxx,7191-2 Cypress Lake Drive,Fort Myers,FL,33907
TJ Maxx,417b Mary Esther Blvd,Fort Walton Beach,FL,32548
TJ Maxx,3120 N. Federal Hwy,Ft. Lauderdale,FL,33306
TJ Maxx,1009 NW 76th Blvd,Gainesville,FL,32606
TJ Maxx,499 West 49th Street,Hialeah,FL,33012
TJ Maxx,2605 NE 10 Court,Homestead,FL,33033
TJ Maxx,2675 Gulf to Lake Highway,Inverness,FL,34453
TJ Maxx,3550 University Blvd W,Jacksonville,FL,32217
TJ Maxx,11824 Atlantic Boulevard,Jacksonville,FL,32225
TJ Maxx,6001-14 Argyle Forest Blvd,Jacksonville,FL,32244
TJ Maxx,11111-16 San Jose Blvd,Jacksonville,FL,32223
TJ Maxx,75 East Indian Town Road,Jupiter,FL,33477
TJ Maxx,101437 Overseas Hwy S-12,Key Largo,FL,33037
TJ Maxx,3240 N Roosevelt Blvd,Key West,FL,33040
TJ Maxx,2551 W. Osceola Pkwy,Kissimmee,FL,34741
TJ Maxx,3215 Vineland Rd,Kissimmee,FL,34746
TJ Maxx,3219 Rolling Oaks Blvd,Kissimmee,FL,34747
TJ Maxx,2487 W US Hwy 90,Lake City,FL,32055
TJ Maxx,3899 W Lake Mary Blvd,Lake Mary,FL,32746
TJ Maxx,6330 Lantana Rd.,Lake Worth,FL,33463
TJ Maxx,4023 Hwy 98 North,Lakeland,FL,33809
TJ Maxx,1301 Missouri Ave N,Largo,FL,33770
TJ Maxx,2314 Remi Dr.,Melbourne (Viera),FL,32940
TJ Maxx,120 S. Courtenay Parkway,Merritt Island,FL,32952
TJ Maxx,7770 N. Kendall Dr.,Miami,FL,33156
TJ Maxx,1420 NW N River Dr,Miami,FL,33125
TJ Maxx,7250 NW 104 Ave,Miami,FL,33178
TJ Maxx,8765 S.W. 136th Street,Miami,FL,33176
TJ Maxx,8546 SW 24th St.,Miami,FL,33144
TJ Maxx,13580 SW 120th Street,Miami,FL,33186
TJ Maxx,7260 Southwest 117th,Miami,FL,33183
TJ Maxx,10001 W Flagler St,Miami,FL,33174
TJ Maxx,20505 S Dixie Hwy,Miami (Cutler Bay),FL,33189
TJ Maxx,1149 5th Street,Miami Beach,FL,33139
TJ Maxx,16920 US Hwy 441,Mount Dora,FL,32757
TJ Maxx,3809 N E 163 Street,N Miami Beach,FL,33160
TJ Maxx,5018 Airport Pulling Road North,Naples,FL,34105
TJ Maxx,5107 US Highway 19,New Port Richey,FL,34652
TJ Maxx,12163 Biscayne Blvd,North Miami,FL,33181
TJ Maxx,1650 NE Miami Gardens Dr,North Miami Beach,FL,33179
TJ Maxx,18059 Tamiami Trail,North Port,FL,34287
TJ Maxx,2701 S.W College,Ocala,FL,34474
TJ Maxx,1063 Alafaya Trail,Orlando,FL,32828
TJ Maxx,6716 Grand National Dr,Orlando,FL,32819
TJ Maxx,11926 Narcoossee Rd,Orlando,FL,32832
TJ Maxx,80 W Grant St.,Orlando,FL,32806
TJ Maxx,1115 Vidina Place,Oviedo,FL,32765
TJ Maxx,4731 Hwy 90,Pace,FL,32571
TJ Maxx,2430 PGA Blvd.,Palm Beach Gardens,FL,33410
TJ Maxx,523 West 23rd Street,Panama City,FL,32405
TJ Maxx,15859 Pines Blvd,Pembroke Pines,FL,33027
TJ Maxx,11030 Pines Boulevard,Pembroke Pines,FL,33026
TJ Maxx,6625 N Davis Hwy,Pensacola,FL,32504
TJ Maxx,4722 Marigold Ave,Poinciana,FL,34758
TJ Maxx,2251 N. Federal Highway,Pompano Beach,FL,33062
TJ Maxx,10864 SW Village Pkwy,Port St. Lucie,FL,34987
TJ Maxx,3700 South Tuttle Ave,Sarasota,FL,34239
TJ Maxx,7191 Seminole Blvd,Seminole,FL,33772
TJ Maxx,1417 Wendy Ct,Spring Hill,FL,34607
TJ Maxx,8201 Martin Luther King St. N,St Petersburg,FL,33702
TJ Maxx,2105 66th Street North,St. Petersburg,FL,33710
TJ Maxx,801 South Walnut St,Starke,FL,32091
TJ Maxx,2377 S.E. Federal Highway,Stuart,FL,34994
TJ Maxx,12801 West Sunrise Blvd.,Sunrise,FL,33323
TJ Maxx,3425 Thomasville Rd,Tallahassee,FL,32308
TJ Maxx,3718 Henderson Blvd,Tampa,FL,33609
TJ Maxx,7555 W.Hillsborough Av,Tampa,FL,33615
TJ Maxx,15740 N.Dale Mabry Hwy,Tampa,FL,33618
TJ Maxx,40968 US 19 N,Tarpon Springs,FL,34689
TJ Maxx,620 US Hwy 441,The Villages (Lady Lake),FL,32159
TJ Maxx,8219 Cooper Creek Blvd,University Park,FL,34201
TJ Maxx,450 No. Venice By-Pass,Venice,FL,34293
TJ Maxx,405 21st Miricle Mile Ext,Vero Beach,FL,32960
TJ Maxx,6035 Wesley Grove Blvd.,Wesley Chapel,FL,33544
TJ Maxx,320 S State Road 7,West Palm Beach,FL,33414
TJ Maxx,1865 Palm Beach Lakes Blvd,West Palm Beach,FL,33401
TJ Maxx,800 Cypress Gardens Blvd,Winter Haven,FL,33880
TJ Maxx,463899 SR 200,Yulee,FL,32097
TJ Maxx,7326 Gall Boulevard,Zephyrhills,FL,33541
TJ Maxx,2600 Old Dawson Road,Albany,GA,31707
TJ Maxx,7631 North Point Parkway,Alpharetta,GA,30022
TJ Maxx,196 Alps Rd,Athens,GA,30606
TJ Maxx,1801 Howell Mill Rd SW,Atlanta,GA,30318
TJ Maxx,650 Ponce de Leon,Atlanta,GA,30308
TJ Maxx,1 Buckhead Loop Road NE,Atlanta,GA,30326
TJ Maxx,2146 Henderson Mill Rd,Atlanta,GA,30345
TJ Maxx,3200 Holcomb Bridge Rd.,Atlanta,GA,30092
TJ Maxx,3602 Marketplace Blvd.,Atlanta,GA,30344
TJ Maxx,3412 Wrightsboro Rd,Augusta,GA,30909
TJ Maxx,1757 E West Connector Ste 300,Austell,GA,30106
TJ Maxx,5697 Appalachian Hwy,Blue Ridge,GA,30513
TJ Maxx,157 Golden Isle Plaza,Brunswick,GA,31525
TJ Maxx,3205 Woodward Crossing Blvd,Buford,GA,30519
TJ Maxx,1810 Cumming Hwy,Canton,GA,30114
TJ Maxx,1301-C South Park St.,Carrollton,GA,30117
TJ Maxx,400 Cherokee Place,Cartersville,GA,30121
TJ Maxx,5488 Peachtree Ind Blvd,Chamblee,GA,30341
TJ Maxx,5550 Whittlesey Blvd,Columbus,GA,31909
TJ Maxx,3201 Macon Rd,Columbus,GA,31906
TJ Maxx,1590 Dogwood Dr,Conyers,GA,30013
TJ Maxx,351 Habersham Village Cir,Cornelia,GA,30531
TJ Maxx,2195 Market Place Blvd,Cumming,GA,30041
TJ Maxx,1325 W Walnut Ave,Dalton,GA,30720
TJ Maxx,2005 Veterans Blvd.,Dublin,GA,31021
TJ Maxx,3675 Satellite Blvd,Duluth,GA,30096
TJ Maxx,134 Perimeter Center West,Dunwoody,GA,30346
TJ Maxx,5883 Spout Springs Rd,Flowery Branch,GA,30542
TJ Maxx,863 Oglethorpe Hwy,Hinesville,GA,31313
TJ Maxx,11720 Medlock Bridge Road,John's Creek,GA,30097
TJ Maxx,425 Ernest Barrett Pkw Sg,Kennesaw,GA,30144
TJ Maxx,1501 Lafayette Pwy,LaGrange,GA,30241
TJ Maxx,4014 Atlanta Hwy,Loganville,GA,30052
TJ Maxx,4101 Roswell Rd NE,Marietta,GA,30062
TJ Maxx,213 South Point Blvd,McDonough,GA,30253
TJ Maxx,2400 North Columbia Street,Milledgeville,GA,31061
TJ Maxx,1536 Southlake Parkway,Morrow,GA,30260
TJ Maxx,567 Bullsboro Drive,Newnan,GA,30263
TJ Maxx,204 Line Creek Dr,Peachtree City,GA,30269
TJ Maxx,250 Pooler Pwy,Pooler,GA,31322
TJ Maxx,1454 Turner McCall Blvd. SW,Rome,GA,30161
TJ Maxx,1125 Woodstock Rd.,Roswell,GA,30075
TJ Maxx,7400 Abercorn,Savannah,GA,31406
TJ Maxx,2540 Cumberland Blvd.,Smyrna,GA,30080
TJ Maxx,1905 Scenic Hwy,Snellville,GA,30078
TJ Maxx,283 Henry Blvd,Statesboro,GA,30458
TJ Maxx,15029 US Hwy 19,Thomasville,GA,31792
TJ Maxx,1008 8th St West,Tifton,GA,31794
TJ Maxx,1200 A N. Saint Augustine,Valdosta,GA,31601
TJ Maxx,2706 Watson Blvd.,Warner Robins,GA,31093
TJ Maxx,2215 Memorial Dr.,Waycross,GA,31501
TJ Maxx,915 Loganville Hwy,Winder,GA,30680
TJ Maxx,98-1005 Moanalua Rd,Aiea,HI,96701
TJ Maxx,111 E Puainako St,Hilo,HI,96720
TJ Maxx,1170 Auahi St,Honolulu,HI,96814
TJ Maxx,153 E Kamehameha Ave,Kahului,HI,96732
TJ Maxx,4450 Kapolei Pwy,Kapolei,HI,96707
TJ Maxx,1120 Kuala Street,Pearl City,HI,96782
TJ Maxx,1409 Buckeye Ave,Ames,IA,50010
TJ Maxx,2010 SE Delaware Ave,Ankeny,IA,50021
TJ Maxx,321 Collins Road N.E.,Cedar Rapids,IA,52404
TJ Maxx,2511 Corridor Way,Coralville,IA,52241
TJ Maxx,3815 Metro Dr,Council Bluffs,IA,51501
TJ Maxx,4026 East 53rd Street,Davenport,IA,52807
TJ Maxx,2591 NW Arterial Rd,Dubuque,IA,52002
TJ Maxx,3410 4th St SW,Mason City,IA,50401
TJ Maxx,1131 North Quincy Ave B,Ottumwa,IA,52501
TJ Maxx,700 11th Street SW,Spencer,IA,51301
TJ Maxx,2705 Crossroads Blvd,Waterloo,IA,50702
TJ Maxx,2900 University Ave.,West Des Moines,IA,50266
TJ Maxx,6305 Mills Civic Pkwy,West Des Moines,IA,50266
TJ Maxx,8345 W Franklin Road,Boise,ID,83709
TJ Maxx,430 West Wilbur Avenue,Coeur D'Alene,ID,83815
TJ Maxx,2965 S. 25th East,Idaho Falls,ID,83406
TJ Maxx,2636 Nez Perce Drive,Lewiston,ID,83501
TJ Maxx,16945 N Marketplace Blvd,Nampa,ID,83687
TJ Maxx,4150 Yellowstone Ave.,Pocatello,ID,83202
TJ Maxx,1964 Bridgeview Blvd.,Twin Falls,ID,83301
TJ Maxx,832 S. Randall Road,Algonquin,IL,60102
TJ Maxx,156 South Gary Avenue,Bloomingdale,IL,60108
TJ Maxx,2103 N Veterans Parkway,Bloomington,IL,61704
TJ Maxx,1246 East Main St,Carbondale,IL,62901
TJ Maxx,21 E Marketview Dr,Champaign,IL,61820
TJ Maxx,3262 West Belmont Ave,Chicago,IL,60618
TJ Maxx,3562 E 118th St,Chicago,IL,60617
TJ Maxx,6456 West Irving Park Rd,Chicago,IL,60634
TJ Maxx,2739 N Clark St,Chicago,IL,60614
TJ Maxx,4932 South Kedzie Ave.,Chicago,IL,60632
TJ Maxx,11 North State Street,Chicago,IL,60602
TJ Maxx,6165 N Lincoln Ave,Chicago,IL,60659
TJ Maxx,5555 S Brainard Ave.,Countryside,IL,60525
TJ Maxx,5764 Northwest Hwy,Crystal Lake,IL,60014
TJ Maxx,3689 N Vermillon St,Danville,IL,61832
TJ Maxx,2546 Sycamore Rd,Dekalb,IL,60115
TJ Maxx,7349 Lemont Road,Downers Grove,IL,60516
TJ Maxx,6647 Edwardsville Crossing Dr,Edwardsville,IL,62025
TJ Maxx,9660 South Western Ave,Evergreen Park,IL,60805
TJ Maxx,10850 Lincoln Trail,Fairview Heights,IL,62208
TJ Maxx,1265 Hickory Mall,Forsyth,IL,62535
TJ Maxx,6521 Grand Ave,Gurnee,IL,60031
TJ Maxx,19B Golf Center,Hoffman Estates,IL,60195
TJ Maxx,2700 Sutton Rd,Hoffman Estates,IL,60195
TJ Maxx,17900 Halsted St,Homewood,IL,60430
TJ Maxx,725 West Route 22,Lake Zurich,IL,60047
TJ Maxx,1009 West Lane Rd,Machesney Park,IL,61115
TJ Maxx,3400 Shoppers Drive,McHenry,IL,60050
TJ Maxx,2099 1/2 N. Mannheim Rd,Melrose Park,IL,60160
TJ Maxx,7250 Dempster Rd,Morton Grove,IL,60053
TJ Maxx,1054 Center Drive,Mt Prospect,IL,60056
TJ Maxx,3000 West Route 60,Mundelein,IL,60060
TJ Maxx,3111 111th Street,Naperville,IL,60540
TJ Maxx,485 E Lincoln Hwy,New Lenox,IL,60451
TJ Maxx,49 Skokie Blvd,Northbrook,IL,60062
TJ Maxx,2155 W 22nd St.,Oak Brook,IL,60521
TJ Maxx,4960 W 111th St,Oak Lawn,IL,60453
TJ Maxx,3030 Route 34,Oswego,IL,60543
TJ Maxx,715 East Dundee Rd,Palatine,IL,60074
TJ Maxx,5001 N Big Hollow,Peoria,IL,61614
TJ Maxx,6210 Broadway St,Quincy,IL,62305
TJ Maxx,375 S Weber Rd,Romeoville,IL,60446
TJ Maxx,3337 Golf Road,Skokie (Evanston),IL,60203
TJ Maxx,486 Randall Road,South Elgin,IL,60177
TJ Maxx,2801 Veterans Parkway,Springfield,IL,62704
TJ Maxx,3635 E Main St,St Charles,IL,60174
TJ Maxx,7252 W 191st St,Tinley Park,IL,60487
TJ Maxx,701 North Milwaukee Ave,Vernon Hills,IL,60061
TJ Maxx,62 Danada Square West,Wheaton,IL,60189
TJ Maxx,160 North Gates Drive,Bloomington,IN,47404
TJ Maxx,5520 East 82nd St,Castleton,IN,46250
TJ Maxx,32 Columbus Center Dr,Columbus,IN,47203
TJ Maxx,6601 E. Lloyd Expy,Evansville,IN,47715
TJ Maxx,717 Northcrest Shopping Center,Fort Wayne,IN,46805
TJ Maxx,8811 Hardegan St,Indianapolis,IN,46227
TJ Maxx,50 North Illinois Street,Indianapolis,IN,46204
TJ Maxx,3879 N Newton St,Jasper,IN,47546
TJ Maxx,4201 Town Ctr Blvd,Jeffersonville,IN,47130
TJ Maxx,2138 East Boulevard,Kokomo,IN,46902
TJ Maxx,200 S Creasy Ln,Lafayette,IN,47905
TJ Maxx,2536 Michigan Rd,Madison,IN,47250
TJ Maxx,4212 S Western Ave,Marion,IN,46953
TJ Maxx,1684 East 80th Ave,Merrillville,IN,46410
TJ Maxx,218 Dunes Plaza,Michigan City,IN,46360
TJ Maxx,5838 Grape Road,Mishawaka,IN,46545
TJ Maxx,1000 East Princeton Ave.,Muncie,IN,47303
TJ Maxx,17100 Mercantile Blvd.,Noblesville,IN,46060
TJ Maxx,2685 E Main St,Plainfield,IN,46168
TJ Maxx,3575 Main Street,Richmond,IN,47374
TJ Maxx,40 Main Street,Schererville,IN,46375
TJ Maxx,1290 E. Ireland Road,South Bend,IN,46614
TJ Maxx,5660B Crawfordsville Rd,Speedway,IN,46224
TJ Maxx,3618 S. US Hwy 41,Terre Haute,IN,47802
TJ Maxx,650 West 300 N,Warsaw,IN,46582
TJ Maxx,6140 Mills Drive,Whitestown,IN,46075
TJ Maxx,1812 N Rock Rd,Derby,KS,67037
TJ Maxx,1710 Larue St,Garden City,KS,67846
TJ Maxx,1500 East 11th St,Hutchinson,KS,67501
TJ Maxx,1821 Village West Parkway,Kansas City,KS,66111
TJ Maxx,3106 Iowa Street,Lawrence,KS,66046
TJ Maxx,9650 Quiviura Rd,Lenexa,KS,66215
TJ Maxx,7921 West 160th Street,Overland Park,KS,66223
TJ Maxx,2170 SW Wanamaker Rd,Topeka,KS,66614
TJ Maxx,8125 E. Kellog,Wichita,KS,67207
TJ Maxx,6700-6820 W.Kellogg Drive,Wichita,KS,67209
TJ Maxx,500 Winchester Ave,Ashland,KY,41101
TJ Maxx,1680 Campbell Lane,Bowling Green,KY,42104
TJ Maxx,2900 S Danville Bypass,Danville,KY,40422
TJ Maxx,1930 North Dixie Hgwy,Elizabethtown,KY,42701
TJ Maxx,7629 Mall Road,Florence,KY,41042
TJ Maxx,7000 John Davis Dr.,Frankfort,KY,40601
TJ Maxx,4863 Ft. Campbell Blvd,Hopkinsville,KY,42240
TJ Maxx,150 West Lowry Lane,Lexington,KY,40503
TJ Maxx,4601A Outer Loop,Louisville,KY,40219
TJ Maxx,4121 Towne Center Drive,Louisville,KY,40241
TJ Maxx,4080 Taylorsville Road,Louisville,KY,40220
TJ Maxx,179 Pavilion Parkway,Newport,KY,41071
TJ Maxx,5101 Frederica Street,Owensboro,KY,42301
TJ Maxx,2929 James Sander Blvd,Paducah,KY,42001
TJ Maxx,365 North Mayo Trail,Paintsville,KY,41240
TJ Maxx,2187 Lantern Ridge Road,Richmond,KY,40475
TJ Maxx,2835 S Hwy 27,Somerset,KY,42503
TJ Maxx,8 Winchester Plaza,Winchester,KY,40391
TJ Maxx,10521 South Mall Drive,Baton Rouge,LA,70810
TJ Maxx,1031 George Dement Blvd,Bossier City,LA,71111
TJ Maxx,10075 Crossing Way,Denham Springs,LA,70726
TJ Maxx,2022 Hammond Square Dr,Hammond,LA,70403
TJ Maxx,5700 Johnston Street,Lafayette,LA,70503
TJ Maxx,304 W Prien Lake Rd,Lake Charles,LA,70601
TJ Maxx,3450 Hwy 190,Mandeville,LA,70470
TJ Maxx,6601 Veteran Mem Blvd,Metairie,LA,70003
TJ Maxx,1300 Pecanland Mall Dr,Monroe,LA,71207
TJ Maxx,1102 E Admiral Doyle Dr,New Iberia,LA,70560
TJ Maxx,2900 S Claiborne Ave,New Orleans,LA,70115
TJ Maxx,3042 Holiday Dr,New Orleans,LA,70131
TJ Maxx,1200 S. Clearview Parkway,New Orleans,LA,70123
TJ Maxx,1216 Woodward Ave,Ruston,LA,71270
TJ Maxx,7060 Youree Drive,Shreveport,LA,71105
TJ Maxx,338 Town Center Pwy,Slidell,LA,70458
TJ Maxx,357 North Canal Blvd,Thibodaux,LA,70301
TJ Maxx,5514 Main St,Zachary,LA,70791
TJ Maxx,365 Massachusetts Ave,Acton,MA,01720
TJ Maxx,1270 Newport Ave,Attleboro,MA,02703
TJ Maxx,711 Southbridge Street,Auburn,MA,01501
TJ Maxx,297 Great Road,Bedford,MA,01730
TJ Maxx,360 Newbury St,Boston,MA,02115
TJ Maxx,350 Washington St.,Boston,MA,02109
TJ Maxx,180 Pearl St,Braintree,MA,02184
TJ Maxx,525 Harvard Street,Brookline,MA,02446
TJ Maxx,100 Cambridgeside Pl,Cambridge,MA,02141
TJ Maxx,198 Alewife Pkwy,Cambridge,MA,02138
TJ Maxx,288 Chelmsford Street,Chelmsford,MA,01824
TJ Maxx,160 Everett Avenue,Chelsea,MA,02150
TJ Maxx,300 Providence Highway,Dedham,MA,02026
TJ Maxx,8 B Allstate Road,Dorchester,MA,02125
TJ Maxx,137 Teaticket Hwy,East Falmouth,MA,02536
TJ Maxx,25 Robert Drive,Easton,MA,02375
TJ Maxx,374 William S Canning Blvd,Fall River,MA,02721
TJ Maxx,1 Worcester Rd,Framingham,MA,01701
TJ Maxx,454 Russell Street,Hadley,MA,01035
TJ Maxx,33 Holyoke St,Holyoke,MA,01040
TJ Maxx,212 Coolidge St,Hudson,MA,01749
TJ Maxx,360 Barnstable Rd,Hyannis,MA,02601
TJ Maxx,100 Watertower Place,Leominster,MA,01453
TJ Maxx,230 S Main St Unit B,Middleton,MA,01949
TJ Maxx,126 & 128 Medway Rd,Milford,MA,01757
TJ Maxx,141 Needham St,Newton,MA,02461
TJ Maxx,350 Winthrop Ave,North Andover,MA,01845
TJ Maxx,444 State Road,North Dartmouth,MA,02747
TJ Maxx,9106 Shops Way,Northborough,MA,01532
TJ Maxx,10 Washington Street,Norwell,MA,02061
TJ Maxx,146 Nahatan St,Norwood,MA,02062
TJ Maxx,2410 Cranberry Cove Plaza,Orleans,MA,02653
TJ Maxx,300 Andover St,Peabody,MA,01960
TJ Maxx,690 Merrill Road,Pittsfield,MA,01201
TJ Maxx,111 Taunton St,Plainville,MA,02762
TJ Maxx,234 Colony Place Rd,Plymouth,MA,02360
TJ Maxx,100 Granite Street,Quincy,MA,02169
TJ Maxx,225 Newburyport Tpke Rt1,Rowley,MA,01969
TJ Maxx,17 Traders Way,Salem,MA,01970
TJ Maxx,1201 Broadway,Saugus,MA,01906
TJ Maxx,55 Commerce Way,Seekonk,MA,02771
TJ Maxx,105 Middlesex Ave,Somerville,MA,02145
TJ Maxx,1334 Park Street,Stoughton,MA,02072
TJ Maxx,437 Boston Post Rd,Sudbury,MA,01776
TJ Maxx,9 Mozzone Blvd.,Taunton,MA,02780
TJ Maxx,846 Lexington Street,Waltham,MA,02452
TJ Maxx,2421 Cranberry Hwy,Wareham,MA,02571
TJ Maxx,239 Memorial Avenue,West Springfield,MA,01089
TJ Maxx,191 East Main Street,Westfield,MA,01085
TJ Maxx,240 Main St.,Wilmington,MA,01887
TJ Maxx,300 Mishawum Road,Woburn,MA,01801
TJ Maxx,541 Lincoln St.,Worcester,MA,01605
TJ Maxx,2309 Forest Drive,Annapolis,MD,21401
TJ Maxx,615 Bel Air Road,Bel Air,MD,21014
TJ Maxx,15530 Annapolis Rd,Bowie,MD,20715
TJ Maxx,15709 Old Columbia Pike,Burtonsville,MD,20866
TJ Maxx,1751 Ritchie Station Ct,Capitol Heights,MD,20743
TJ Maxx,6231 Columbia Crossing Road,Columbia,MD,21046
TJ Maxx,2664 Chapel Lake Dr,Crofton,MD,21054
TJ Maxx,1262 Vocke Rd,Cumberland,MD,21502
TJ Maxx,5533 Urbana Pike,Frederick,MD,21704
TJ Maxx,20906-B Frederick Road,Germantown,MD,20876
TJ Maxx,7000 Arundel Mills Circle,Hanover,MD,21076
TJ Maxx,3500 East West Hwy,Hyattsville,MD,20782
TJ Maxx,9461 Annapolis Road,Lanham,MD,20706
TJ Maxx,3411 Fort Mead Rd.,Laurel,MD,20724
TJ Maxx,1001 Twin Arch Rd,Mt Airy,MD,21771
TJ Maxx,5257 Campbell Blvd,Nottingham,MD,21236
TJ Maxx,11419 Coastal Ocean Hwy,Ocean City,MD,21842
TJ Maxx,18329 Village Mart Drive,Olney,MD,20832
TJ Maxx,9616 Reisterstown Rd,Owings Mills,MD,21117
TJ Maxx,8040 Governor Ritchie Hwy,Pasadena,MD,21122
TJ Maxx,140 W Dares Beach Rd,Prince Frederick,MD,20678
TJ Maxx,1776 E Jefferson St,Rockville,MD,20852
TJ Maxx,8661 Colesville Rd,Silver Spring,MD,20910
TJ Maxx,6400 Ridge Rd,Sykesville,MD,21784
TJ Maxx,1238 Putty Hill Avenue,Towson,MD,21286
TJ Maxx,2969 Festival Way,Waldorf,MD,20601
TJ Maxx,742 Center Street,Auburn,ME,04210
TJ Maxx,80 Stephen King Dr,Augusta,ME,04330
TJ Maxx,649 Broadway,Bangor,ME,04401
TJ Maxx,411 Mariner Way,Biddeford,ME,04005
TJ Maxx,8 Gurnett Road,Brunswick,ME,04011
TJ Maxx,225 High St.,Ellsworth,ME,04605
TJ Maxx,235 Camden Street,Rockland,ME,04841
TJ Maxx,415 Philbrook Ave,S. Portland,ME,04106
TJ Maxx,100 JFK Plaza,Waterville,ME,04901
TJ Maxx,3320 Fairlane Drive,Allen Park,MI,48101
TJ Maxx,2467 Stadium Blvd,Ann Arbor,MI,48103
TJ Maxx,4020 Baldwin Road,Auburn Hills,MI,48326
TJ Maxx,12765 Harper Village Dr.,Battle Creek,MI,49014
TJ Maxx,980 Fairplain Drive,Benton Harbor,MI,49022
TJ Maxx,17740 W.13 Mile Rd,Beverly Hills,MI,48025
TJ Maxx,2139 South Telegraph Rd.,Bloomfield Hills,MI,48302
TJ Maxx,9590 Village Place Blvd,Brighton,MI,48116
TJ Maxx,8775 E 34th Rd,Cadillac,MI,49601
TJ Maxx,1965 N Canton Center Dr,Canton,MI,48187
TJ Maxx,50383 Waterside Dr,Chesterfield,MI,48051
TJ Maxx,33930 S Gratiot Ave,Clinton Township,MI,48035
TJ Maxx,26520 Ford Rd,Dearborn Heights,MI,48127
TJ Maxx,33025 Grand River Ave,Farmington,MI,48336
TJ Maxx,30955 Orchard Lake Rd,Farmington Hills,MI,48334
TJ Maxx,18065 Silver Pkwy,Fenton,MI,48430
TJ Maxx,3192 Linden Rd,Flint,MI,48507
TJ Maxx,2400 M-32 West,Gaylord,MI,49735
TJ Maxx,2030 E Beltline Ave NE,Grand Rapids,MI,49525
TJ Maxx,3525 28th Street SE,Grand Rapids,MI,49512
TJ Maxx,760 West State St,Hastings,MI,49058
TJ Maxx,12635 Felch St.,Holland,MI,49424
TJ Maxx,1152 Jackson Crossing,Jackson,MI,49202
TJ Maxx,526 Frandor Ave,Lansing,MI,48912
TJ Maxx,8110 W Saginaw Hwy,Lansing,MI,48917
TJ Maxx,3540 US 41,Marquette,MI,49855
TJ Maxx,2339 North Telegraph Road,Monroe,MI,48162
TJ Maxx,4146 E. Blue Grass Road,Mount Pleasant,MI,48858
TJ Maxx,17223 Haggerty Rd,Northville,MI,48168
TJ Maxx,5225 Harvey Street,Norton Shores,MI,49444
TJ Maxx,43175 Crescent Blvd,Novi,MI,48375
TJ Maxx,4097 24th Avenue,Port Huron,MI,48059
TJ Maxx,6126 So. Westnedge Avenue,Portage,MI,49081
TJ Maxx,2711 S. Rochester Road,Rochester Hills,MI,48307
TJ Maxx,26050 Gratiot Ave,Roseville,MI,48066
TJ Maxx,3421 Tittabawassee,Saginaw,MI,48604
TJ Maxx,4500 I-75 Business Spur,Sault Sainte Marie,MI,49783
TJ Maxx,7764 26 Mile Rd,Shelby Township,MI,48316
TJ Maxx,15200 Dix Toledo Hwy,Southgate,MI,48195
TJ Maxx,3301 North US 31 South,Traverse City,MI,49684
TJ Maxx,350 John R Road,Troy,MI,48083
TJ Maxx,3158 Carpenter Rd,Ypsilanti,MI,48197
TJ Maxx,13499 Elmwood Dr,Baxter,MN,56425
TJ Maxx,2030 Paul Bunyan Dr NW,Bemidji,MN,56601
TJ Maxx,7982 Southtown Center,Bloomington,MN,55431
TJ Maxx,1300 Shingle Creek Crossing,Brooklyn Center,MN,55430
TJ Maxx,14041 Aldrich Ave S,Burnsville,MN,55337
TJ Maxx,3577 River Rapids Dr,Coon Rapids,MN,55448
TJ Maxx,7240 E Point Douglas Rd S170,Cottage Grove,MN,55016
TJ Maxx,5115 Burning Tree Rd,Duluth,MN,55811
TJ Maxx,1259 Promenade Place,Eagan,MN,55122
TJ Maxx,1901 Madison Avenue,Mankato,MN,56001
TJ Maxx,5815 Krueger Lane North,Oak Park Heights,MN,55082
TJ Maxx,4190 Vinewood Lane North,Plymouth,MN,55442
TJ Maxx,200 Tyler Road N,Red Wing,MN,55066
TJ Maxx,1300 Salem Road SW,Rochester,MN,55902
TJ Maxx,2832 Division Street,Saint Cloud,MN,56301
TJ Maxx,8322 Highway 7,St. Louis Park,MN,55426
TJ Maxx,1901 South First St,Willmar,MN,56201
TJ Maxx,8272 Tamarack Village,Woodbury,MN,55125
TJ Maxx,1310 NE Coronado Dr,Blue Springs,MO,64014
TJ Maxx,1100 Branson Hills Pkwy,Branson,MO,65616
TJ Maxx,308 Siemers Dr.,Cape Girardeau,MO,63701
TJ Maxx,12559 Olive Blvd,Creve Coeur,MO,63141
TJ Maxx,12129 Manchester Rd,Des Peres,MO,63131
TJ Maxx,137 Gravois Bluffs Plz Dr,Fenton,MO,63026
TJ Maxx,12230 15th St,Grandview,MO,64030
TJ Maxx,3535 Missouri Blvd.,Jefferson City,MO,65109
TJ Maxx,101 N Rangeline Rd,Joplin,MO,64801
TJ Maxx,8600 Ward Pkwy,Kansas City,MO,64114
TJ Maxx,8510 N. Evanston Road,Kansas City,MO,64157
TJ Maxx,1046 S. Kirkwood Road,Kirkwood,MO,63122
TJ Maxx,6280 Ronald Reagan Drive,Lake St Louis,MO,63367
TJ Maxx,1640 NW Chipman Road,Lee's Summit,MO,64081
TJ Maxx,1525 Westside Dr,Rolla,MO,65401
TJ Maxx,3105 W Broadway Blvd,Sedalia,MO,65301
TJ Maxx,3350 So Glenstone Ave,Springfield,MO,65804
TJ Maxx,5201 N Belt Hwy,St Joseph,MO,64506
TJ Maxx,3851 Mexico Road,St. Charles,MO,63301
TJ Maxx,830 Brookway Blvd,Brookhaven,MS,39601
TJ Maxx,1484 Old Aberdeen Rd,Columbus,MS,39705
TJ Maxx,250 Dogwood Blvd,Flowood,MS,39232
TJ Maxx,1651 Hwy 1 South,Greenville,MS,38701
TJ Maxx,15150 Crossroads Parkway,Gulfport,MS,39503
TJ Maxx,5024 Hardy Street,Hattiesburg,MS,39402
TJ Maxx,6384 Ridgewood Ct.,Jackson,MS,39211
TJ Maxx,103 S Frontage Rd,Meridian,MS,39301
TJ Maxx,5050 Goodman Rd,Olive Branch,MS,38654
TJ Maxx,3817 Denny Avenue,Pascagoula,MS,39567
TJ Maxx,4298 Mall Drive,Tupelo,MS,38804
TJ Maxx,3405 Pemberton Square Blvd,Vicksburg,MS,39180
TJ Maxx,2545 Central Avenue,Billings,MT,59102
TJ Maxx,1540 N 19th Ave,Bozeman,MT,59718
TJ Maxx,135 Northwest Bypass,Great Falls,MT,59404
TJ Maxx,2005 Cromwell-Dixon Lane,Helena,MT,59602
TJ Maxx,2391 US Hwy. 93 North,Kalispell,MT,59901
TJ Maxx,3275 N. Reserve St.,Missoula,MT,59808
TJ Maxx,125 Aberdeen Pines Way,Aberdeen,NC,28315
TJ Maxx,780 Leonard Ave,Albemarle,NC,28001
TJ Maxx,1571 Beaver Creek Commons Drive,Apex,NC,27502
TJ Maxx,80 South Tunnel Road,Asheville,NC,28805
TJ Maxx,1180 Blowing Rock Road,Boone,NC,28607
TJ Maxx,1453 University Dr,Burlington,NC,27215
TJ Maxx,8331 Ikea Blvd,Charlotte,NC,28262
TJ Maxx,4726 South Boulevard,Charlotte,NC,28217
TJ Maxx,12740 S Tyron St,Charlotte,NC,28273
TJ Maxx,8050 Concord Mills Blvd,Concord,NC,28027
TJ Maxx,4600 Chapel Hill Blvd,Durham,NC,27707
TJ Maxx,3850 Conlon Way,Elizabeth City,NC,27909
TJ Maxx,5075 Morgantown Road,Fayetteville,NC,28314
TJ Maxx,1422 North Main St,Fuquay Varina,NC,27526
TJ Maxx,240 Shenstone Blvd.,Garner,NC,27529
TJ Maxx,415 Cox Rd,Gastonia,NC,28054
TJ Maxx,1303 Berkley Blvd N,Goldsboro,NC,27534
TJ Maxx,4217 D W Wendover Ave,Greensboro,NC,27407
TJ Maxx,2829 Battleground Ave,Greensboro,NC,27408
TJ Maxx,3040 Evans Street,Greenville,NC,27834
TJ Maxx,1800 Four Seasons Blvd,Hendersonville,NC,28792
TJ Maxx,1874 Catawba Valley Blvd,Hickory,NC,28602
TJ Maxx,265 Eastchester Drive,High Point,NC,27262
TJ Maxx,218 Hinton Oaks Blvd,Knightdale,NC,27545
TJ Maxx,3001 West Highway 74,Monroe,NC,28110
TJ Maxx,590 I River Highway,Mooresville,NC,28117
TJ Maxx,5160 Highway 70W,Morehead City,NC,28557
TJ Maxx,E102 Morganton Heights Blvd,Morganton,NC,28655
TJ Maxx,3033 Market Center Drive,Morrisville,NC,27560
TJ Maxx,2210 South Croatan Hwy,Nags Head,NC,27959
TJ Maxx,3122 Dr Martin Luther King Jr Blvd,New Bern,NC,28562
TJ Maxx,8361 Brier Creek Parkway,Raleigh,NC,27617
TJ Maxx,6653 Falls Of Neuse Rd,Raleigh,NC,27615
TJ Maxx,1480 Jeffreys Road,Rocky Mount,NC,27804
TJ Maxx,222 Turnersburg Hwy,Statesville,NC,28625
TJ Maxx,12632 Capital Blvd,Wake Forest,NC,27587
TJ Maxx,341 South College Rd,Wilmington,NC,28403
TJ Maxx,3338 Robinhood Road,Winston-Salem,NC,27106
TJ Maxx,905 W Interstate Ave,Bismarck,ND,58503
TJ Maxx,4340 13th Ave Sw,Fargo,ND,58103
TJ Maxx,3531 32nd Avenue South,Grand Forks,ND,58201
TJ Maxx,2400 8th St SW,Jamestown,ND,58401
TJ Maxx,1026 24th Ave SW,Minot,ND,58701
TJ Maxx,201 Wilmar Ave,Grand Island,NE,68803
TJ Maxx,21143 NE Crossing Road,Gretna,NE,68028
TJ Maxx,400 N. 48th Street,Lincoln,NE,68504
TJ Maxx,1001 S Dewey St,North Platte,NE,69101
TJ Maxx,12285 West Center Rd,Omaha,NE,68144
TJ Maxx,13454 W Maple Rd,Omaha,NE,68164
TJ Maxx,7603 Towne Center Pkwy,Papillion,NE,68046
TJ Maxx,345 Washington St,Claremont,NH,03743
TJ Maxx,12 Loudon Rd,Concord,NH,03301
TJ Maxx,1400 Lakeshore Rd,Gilford,NH,03246
TJ Maxx,63 Key Street,Keene,NH,03431
TJ Maxx,554 Meadow St,Littleton,NH,03561
TJ Maxx,10 Michels Way,Londonderry,NH,03053
TJ Maxx,116 March Ave,Manchester,NH,03103
TJ Maxx,268 Daniel Webster Hwy,Nashua,NH,03060
TJ Maxx,590 Amherst St.,Nashua,NH,03063
TJ Maxx,1584 White Mountain Hwy,North Conway,NH,03860
TJ Maxx,4 Plaistow Rd.,Plaistow,NH,03865
TJ Maxx,1600 Woodbury Avenue,Portsmouth,NH,03801
TJ Maxx,92 Cluff Crossing Rd.,Salem,NH,03079
TJ Maxx,380 Lafayette Road,Seabrook,NH,03874
TJ Maxx,180 Tri City Plaza,Somersworth,NH,03878
TJ Maxx,200 South Main Street,West Lebanon,NH,03784
TJ Maxx,105 LeFante Way,Bayonne,NJ,07002
TJ Maxx,300 Commons Way,Bridgewater,NJ,08807
TJ Maxx,20 Court House South Dennis Rd.,Cape May,NJ,08210
TJ Maxx,110 E Hanover Ave,Cedar Knolls,NJ,07927
TJ Maxx,815 Haddonfield Rd,Cherry Hill,NJ,08002
TJ Maxx,1 Wal Mart Plaza,Clinton,NJ,08809
TJ Maxx,1800 Clements Brg Rd,Deptford,NJ,08096
TJ Maxx,331 Rte. 18,E. Brunswick,NJ,08816
TJ Maxx,72 Princeton Hightstown Road,East Windsor,NJ,08520
TJ Maxx,70 Highway 36,Eatontown,NJ,07724
TJ Maxx,477 River Road,Edgewater,NJ,07020
TJ Maxx,561 Us Route 1,Edison,NJ,08817
TJ Maxx,6716 Black Horse Pike,Egg Harbor Township,NJ,08234
TJ Maxx,154 Rt. 9 - Rd 3,Englishtown,NJ,07726
TJ Maxx,30 International Drive South,Flanders,NJ,07836
TJ Maxx,344 North Main Street,Forked River (Lacey Township),NJ,08731
TJ Maxx,977 Valley Road,Gillette,NJ,07933
TJ Maxx,4773 Route 9 North,Howell,NJ,07731
TJ Maxx,1701 W Edgar Rd,Linden,NJ,07036
TJ Maxx,530 W Mount Pleasant Dr,Livingston,NJ,07039
TJ Maxx,423 Valley Brook Ave,Lyndhurst,NJ,07071
TJ Maxx,173 South Rt. 73,Marlton,NJ,08053
TJ Maxx,1123 Route 35,Middletown,NJ,07748
TJ Maxx,68 Centerton Rd,Mt Laurel,NJ,08054
TJ Maxx,34 East Ridgewood Avenue,Paramus,NJ,07652
TJ Maxx,500 Route 23N,Pompton Plains,NJ,07444
TJ Maxx,210 Nassau Park Blvd,Princeton,NJ,08540
TJ Maxx,125 Interstate Shopping Center,Ramsey,NJ,07446
TJ Maxx,426 US-46 E,Rockaway,NJ,07866
TJ Maxx,189 Route 46 West,Saddle Brook,NJ,07663
TJ Maxx,21 Mill Creek Dr,Secaucus,NJ,07094
TJ Maxx,601 Washington Avenue,Stafford Township,NJ,08050
TJ Maxx,215 Route 46 W,Totowa,NJ,07512
TJ Maxx,920 Springfield Road,Union,NJ,07083
TJ Maxx,1933 Route 35 S,Wall Township,NJ,07719
TJ Maxx,1515 Rte. 22 West,Watchung,NJ,07069
TJ Maxx,790 Bloomfield Ave,West Caldwell,NJ,07006
TJ Maxx,35 Marshall Hill Rd,West Milford,NJ,07480
TJ Maxx,700 Broadway,Westwood,NJ,07675
TJ Maxx,903 St George's Ave,Woodbridge,NJ,07095
TJ Maxx,2100 Louisana Blvd NE,Albuquerque,NM,87110
TJ Maxx,5001 Montgomery Blvd NE,Albuquerque,NM,87109
TJ Maxx,3550 E. Main Street,Farmington,NM,87402
TJ Maxx,3575 NM Hwy 528 NE,Rio Rancho,NM,87144
TJ Maxx,3521 Zafarano Drive,Santa Fe,NM,87507
TJ Maxx,2109 W Williams Ave,Fallon,NV,89406
TJ Maxx,3499 St Rose Pkwy S100,Henderson,NV,89052
TJ Maxx,480 No. Stephanie Street,Henderson,NV,89014
TJ Maxx,10000 W Sahara,Las Vegas,NV,89117
TJ Maxx,7040 N. Durango,Las Vegas,NV,89149
TJ Maxx,6677 Las Vegas Blvd S,Las Vegas,NV,89119
TJ Maxx,4640 West Sahara,Las Vegas,NV,89102
TJ Maxx,8435 West Warm Springs,Las Vegas,NV,89113
TJ Maxx,2190 N Rainbow Blvd,Las Vegas,NV,89108
TJ Maxx,4821 Kietzke Lane,Reno,NV,89509
TJ Maxx,1530 E Lincoln Way,Sparks,NV,89434
TJ Maxx,161 Washington Ave Ext,Albany,NY,12205
TJ Maxx,1501 Niagara Falls Blvd,Amherst,NY,14229
TJ Maxx,22-06 31st Street,Astoria,NY,11105
TJ Maxx,1527 Montauk Hwy,Bridgehampton,NY,11932
TJ Maxx,6528 Fourth Section Rd,Brockport,NY,14420
TJ Maxx,815 Hutchinson River Pwy,Bronx,NY,10465
TJ Maxx,171 W 230th St,Bronx,NY,10463
TJ Maxx,961 E 174th St,Bronx,NY,10460
TJ Maxx,1 Fordham Plaza,Bronx,NY,10458
TJ Maxx,410 Gateway Drive,Brooklyn,NY,11239
TJ Maxx,1630 East 15th St,Brooklyn,NY,11229
TJ Maxx,3225 State Rd 364,Canandaigua,NY,14424
TJ Maxx,217 Glen Cove Rd,Carle Place (Li),NY,11514
TJ Maxx,136-03 20th Avenue,College Point,NY,11356
TJ Maxx,5020 Jericho Turnpike,Commack (Li),NY,11725
TJ Maxx,3976 Vineyard Drive,Dunkirk,NY,14048
TJ Maxx,123 Grey St,East Aurora,NY,14052
TJ Maxx,821 County Rte 64,Elmira (Big Flats),NY,14903
TJ Maxx,1445 Hempstead Tnpk U-A,Elmont,NY,11003
TJ Maxx,231 Airport Plaza Blvd,Farmingdale,NY,11735
TJ Maxx,320 Towne Drive,Fayetteville,NY,13066
TJ Maxx,176-60 Union Turnpike,Fresh Meadows,NY,11366
TJ Maxx,4357 Genesee Valley Plaza Rd,Geneseo,NY,14454
TJ Maxx,80 - 16 Cooper Ave,Glendale,NY,11385
TJ Maxx,90 Northern Boulevard,Greenvale (Li),NY,11548
TJ Maxx,3670 McKinley Parkway,Hamburg,NY,14219
TJ Maxx,5 West 125th St,Harlem,NY,10027
TJ Maxx,425 Central Ave.,Hartsdale,NY,10530
TJ Maxx,371 Smithtown Bypass S16,Hauppauge,NY,11788
TJ Maxx,300 Peninsula Blvd,Hempstead,NY,11550
TJ Maxx,450 Fairview Ave,Hudson,NY,12534
TJ Maxx,744 S Meadow St,Ithaca,NY,14850
TJ Maxx,223 N Comrie Ave,Johnstown,NY,12095
TJ Maxx,42 Indian Head Road,Kings Park,NY,11754
TJ Maxx,279 E Fairmount Ave.,Lakewood,NY,14750
TJ Maxx,221 Wade Road Extension,Latham,NY,12110
TJ Maxx,3841 State Road 31,Liverpool,NY,13090
TJ Maxx,5847 S Transit Rd,Lockport,NY,14094
TJ Maxx,5500 Sunrise Highway,Massapequa,NY,11758
TJ Maxx,94 Grove Street,Massena,NY,13662
TJ Maxx,2799 Horseblock Rd,Medford,NY,11763
TJ Maxx,88 Dunning Rd,Middletown,NY,10940
TJ Maxx,290 Larkin Drive,Monroe,NY,10950
TJ Maxx,600 East Sandford Blvd,Mt Vernon,NY,10550
TJ Maxx,506 Main Street,Mt. Kisco,NY,10549
TJ Maxx,205 East Route 59,Nanuet,NY,10954
TJ Maxx,4739 Commercial Drive,New Hartford,NY,13413
TJ Maxx,2315 New Hyde Park Road,New Hyde Park,NY,11040
TJ Maxx,407 East 59th St,New York,NY,10022
TJ Maxx,483 Broadway,New York,NY,10013
TJ Maxx,250 West 57th St,New York,NY,10107
TJ Maxx,14 Wall Street,New York,NY,10005
TJ Maxx,620 Ave. Of The Americas,New York,NY,10011
TJ Maxx,808 Columbus Ave,New York (Columbus Village),NY,10025
TJ Maxx,7210 Niagara Falls Blvd,Niagara Falls,NY,14304
TJ Maxx,3221 Long Beach Road,Oceanside,NY,11572
TJ Maxx,5006 State Highway 23,Oneonta,NY,13820
TJ Maxx,137 State Route 104 E,Oswego,NY,13126
TJ Maxx,401 South Oyster Bay Road,Plainview,NY,11803
TJ Maxx,63 Consumer Square,Plattsburgh,NY,12901
TJ Maxx,5125 Nesconset Hwy,Port Jefferson Station,NY,11776
TJ Maxx,2 Soundview Marketplace,Port Washington,NY,11050
TJ Maxx,2600 South Rd.,Poughkeepsie,NY,12601
TJ Maxx,820 Route 9,Queensbury,NY,12804
TJ Maxx,6101 Junction Blvd.,Rego Park (Queens),NY,11374
TJ Maxx,102 Van Rensselaer Square,Rensselaer,NY,12144
TJ Maxx,1791 Old Country Rd,Riverhead,NY,11901
TJ Maxx,3349 Monroe Ave,Rochester,NY,14618
TJ Maxx,25300 Rockaway Boulevard,Rosedale,NY,11422
TJ Maxx,3082 Route 50,Saratoga Springs,NY,12866
TJ Maxx,220 South Cascade Drive,Springville,NY,14141
TJ Maxx,245 Bricktown Way,Staten Island,NY,10309
TJ Maxx,2530 Hylan Boulevard,Staten Island,NY,10306
TJ Maxx,1509 Forest Avenue,Staten Island,NY,10302
TJ Maxx,306 Hiawatha Blvd W,Syracuse,NY,13204
TJ Maxx,2413 Vestal Parkway East,Vestal,NY,13850
TJ Maxx,80 Cobblestone Court Dr,Victor,NY,14564
TJ Maxx,21855 Towne Center Dr,Watertown,NY,13601
TJ Maxx,1032 Ridge Road,Webster,NY,14580
TJ Maxx,4199 Transit Rd,Williamsville,NY,14221
TJ Maxx,750 Central Park Avenue,Yonkers,NY,10704
TJ Maxx,35 Fitzgerald Street,Yonkers,NY,10710
TJ Maxx,355 Downing Dr,Yorktown Heights,NY,10598
TJ Maxx,2642 West State Street,Alliance,OH,44601
TJ Maxx,2850 F Centre Drive,Beavercreek,OH,45324
TJ Maxx,717 Boardman Poland Rd,Boardman,OH,44512
TJ Maxx,1111 S Main St,Bowling Green,OH,43402
TJ Maxx,4794 Ridge Road,Brooklyn,OH,44144
TJ Maxx,16280 Dresden Ave,Calcutta,OH,43920
TJ Maxx,3963 Everhard Rd NW,Canton,OH,44709
TJ Maxx,1075 N Bridge St,Chillicothe,OH,45601
TJ Maxx,11311 Montgomery Road,Cincinnati,OH,45249
TJ Maxx,6140 Glenway Ave.,Cincinnati,OH,45211
TJ Maxx,458 Ohio Pike,Cincinnati,OH,45255
TJ Maxx,7800 Montgomery Rd,Cincinnati,OH,45236
TJ Maxx,3760 Easton Market,Columbus,OH,43219
TJ Maxx,1255 Polaris Parkway,Columbus,OH,43240
TJ Maxx,155 Graceland Blvd,Columbus,OH,43214
TJ Maxx,3897 Medina Road,Fairlawn,OH,44333
TJ Maxx,2350 Tiffin Avenue,Findlay,OH,45840
TJ Maxx,1707 Stringtown Road,Grove City,OH,43123
TJ Maxx,3445 Princeton Rd,Hamilton,OH,45011
TJ Maxx,965 Hebron Road,Heath,OH,43056
TJ Maxx,1472 Spring Meadow Dr,Holland,OH,43528
TJ Maxx,8540 Factory Shops Blvd,Jeffersonville,OH,43128
TJ Maxx,302 E Stroop Rd,Kettering,OH,45429
TJ Maxx,1330 River Valley Blvd,Lancaster,OH,43130
TJ Maxx,2730 Elida Rd,Lima,OH,45805
TJ Maxx,500 E Aurora Rd,Macedonia,OH,44056
TJ Maxx,2245 Walker Lake Road,Mansfield,OH,44903
TJ Maxx,1676 Marion Mt Gilead Rd,Marion,OH,43302
TJ Maxx,7845 Mentor Ave,Mentor,OH,44060
TJ Maxx,10749 Innovation Drive,Miamisburg,OH,45342
TJ Maxx,25959 Lorain Rd,North Olmsted,OH,44070
TJ Maxx,2692 Madison Rd,Norwood,OH,45208
TJ Maxx,550 South Locust St,Oxford,OH,45056
TJ Maxx,951 Pleasant Vly Rd,Parma,OH,44134
TJ Maxx,7396 State Route 161,Plain City,OH,43064
TJ Maxx,8173 E Broad St,Reynoldsburg,OH,43068
TJ Maxx,9840 Olde US 20,Rossford,OH,43460
TJ Maxx,4314 Milan Road,Sandusky,OH,44870
TJ Maxx,1958 Warrensville Ctr Rd,South Euclid,OH,44121
TJ Maxx,488 Corwin Nixon Blvd,South Lebanon,OH,45065
TJ Maxx,493 East Kemper Road,Springdale,OH,45246
TJ Maxx,300 S Hollywood Blvd,Steubenville,OH,43952
TJ Maxx,4290 Kent Rd,Stow,OH,44224
TJ Maxx,18290 Royalton Road,Strongsville,OH,44136
TJ Maxx,3315 West Central Ave,Toledo,OH,43606
TJ Maxx,2150 Niles Cortland Rd SE,Warren,OH,44484
TJ Maxx,7572 Voice of America Center Drive,West Chester,OH,45069
TJ Maxx,35101 Euclid Ave.,Willoughby,OH,44094
TJ Maxx,27049 Chagrin Blvd,Woodmere,OH,44122
TJ Maxx,4369 Burbank Rd,Wooster,OH,44691
TJ Maxx,3575 Maple Ave,Zanesville,OH,43701
TJ Maxx,1203 N Commerce,Ardmore,OK,73401
TJ Maxx,2687 SE Adams Blvd,Bartlesville,OK,74006
TJ Maxx,48 S.E. 33rd Street,Edmond,OK,73013
TJ Maxx,3828 W Owen K Garriott,Enid,OK,73703
TJ Maxx,1824 NW 82nd St,Lawton,OK,73505
TJ Maxx,1204 Tanglewood Dr,McAlester,OK,74501
TJ Maxx,713 W Shawnee Ave,Muskogee,OK,74401
TJ Maxx,1580 24th Ave NW,Norman,OK,73069
TJ Maxx,8525 Rockwell Ave,Oklahoma City,OK,73132
TJ Maxx,9018 N 121st East Ave,Owasso,OK,74055
TJ Maxx,4850 Marketplace Blvd,Shawnee,OK,74804
TJ Maxx,605 N Main St,Stillwater,OK,74075
TJ Maxx,8228 East 61st St,Tulsa,OK,74133
TJ Maxx,3115 SW Cedar Hills Blvd,Beaverton,OR,97076
TJ Maxx,3188 North Highway 97,Bend,OR,97701
TJ Maxx,"1550 NW 9th St,",Corvallis,OR,97330
TJ Maxx,235 Coburg Rd,Eugene,OR,97401
TJ Maxx,939 D Street,Grants Pass,OR,97526
TJ Maxx,11370 SE 82nd Ave,Happy Valley,OR,97086
TJ Maxx,2780 South 6th St,Klamath Falls,OR,97603
TJ Maxx,2212 Island Ave,La Grande,OR,97850
TJ Maxx,501 Medford Center,Medford,OR,97504
TJ Maxx,12135 N Parker Ave,Portland,OR,97217
TJ Maxx,827 Lancaster Dr NE,Salem,OR,97301
TJ Maxx,8635 Tualatin-Sherwood Rd,Tualatin,OR,97062
TJ Maxx,1479 SE Discovery Ln S-A,Warrenton,OR,97146
TJ Maxx,3020 Spraque Ln,Woodburn,OR,97071
TJ Maxx,1495 Old York Rd,Abington,PA,19001
TJ Maxx,2700 Old Route 220,Altoona,PA,16601
TJ Maxx,1336 Bristol Pike,Bensalem,PA,19020
TJ Maxx,3926 Linden St,Bethlehem,PA,18017
TJ Maxx,1155 Washington Pike,Bridgeville,PA,15017
TJ Maxx,1991 Sproul Rd,Broomall,PA,19008
TJ Maxx,750 Butler Crossing,Butler,PA,16001
TJ Maxx,100 Noble Blvd,Carlisle,PA,17013
TJ Maxx,1320 Lincoln Way E,Chambersburg,PA,17202
TJ Maxx,1717 Route 228,Cranberry Township,PA,16066
TJ Maxx,650 Commerce Boulevard,Dickson City,PA,18519
TJ Maxx,120 Commons Drive,DuBois,PA,15801
TJ Maxx,2070 Interchange Rd,Erie,PA,16565
TJ Maxx,101 E Swedesford Rd,Exton,PA,19341
TJ Maxx,105 East Street Road,Feasterville,PA,19053
TJ Maxx,5375 William Flynn Hwy,Gibsonia,PA,15044
TJ Maxx,5280 Route 30,Greensburg,PA,15601
TJ Maxx,413 Eisenhower Drive,Hanover,PA,17331
TJ Maxx,10 Laurel Mall Dr,Hazleton Township,PA,18202
TJ Maxx,2465 E. State Street,Hermitage,PA,16148
TJ Maxx,580 East Waterfront Drive,Homestead,PA,15120
TJ Maxx,650 Old Willow Ave,Honesdale,PA,18431
TJ Maxx,1170 Mae St,Hummelstown,PA,17036
TJ Maxx,1570 Oakland Ave,Indiana,PA,15701
TJ Maxx,320 Town Centre Drive,Johnstown,PA,15904
TJ Maxx,823 E. Baltimore Pike,Kennett Square,PA,19348
TJ Maxx,832 Plaza Blvd,Lancaster,PA,17601
TJ Maxx,350 Lincoln Plaza,Langhorne,PA,19047
TJ Maxx,1141 Quentin Road,Lebanon,PA,17042
TJ Maxx,111 Hulst Dr,Matamoras,PA,18336
TJ Maxx,3945 Washington Road,Mcmurray,PA,15317
TJ Maxx,11383 Vernon Place Rd,Meadville,PA,16335
TJ Maxx,99 Gateway Dr,Mechanicsburg,PA,17055
TJ Maxx,1103 W Baltimore Pike,Media,PA,19063
TJ Maxx,2850 Dekalb Pike,Norristown,PA,19401
TJ Maxx,1 Airport Square,North Wales,PA,19454
TJ Maxx,200 Commons Drive,Parkesburg,PA,19365
TJ Maxx,1130 Market St,Philadelphia,PA,19107
TJ Maxx,1851 S C Columbus Blvd,Philadelphia,PA,19148
TJ Maxx,7616 City Line Avenue,Philadelphia,PA,19151
TJ Maxx,7301 Castor Ave,Philadelphia,PA,19152
TJ Maxx,701 Cathedral Road,Philadelphia,PA,19128
TJ Maxx,928 Freeport Rd,Pittsburgh,PA,15238
TJ Maxx,1600 Park Manor Blvd,Pittsburgh,PA,15205
TJ Maxx,7120 Fairlane Village Mall,Pottsville,PA,17901
TJ Maxx,221 North West End Blvd,Quakertown,PA,18951
TJ Maxx,494 Marketplace Blvd,Selinsgrove,PA,17870
TJ Maxx,550 E. Lancaster Ave.,St. Davids,PA,19087
TJ Maxx,1613-C North Atherton St.,State College,PA,16803
TJ Maxx,150 Upland Square Drive,Stowe,PA,19464
TJ Maxx,100 Pocono Commons,Stroudsburg,PA,18360
TJ Maxx,117 Matthew Drive,Uniontown,PA,15401
TJ Maxx,1035 N Main St,Warrington,PA,18976
TJ Maxx,225 East Swedesford Road,Wayne,PA,19087
TJ Maxx,2631 Macarthur Road,Whitehall,PA,18052
TJ Maxx,461 Arena Hub Plaza,Wilkes Barre,PA,18702
TJ Maxx,1734 East 3rd Street,Williamsport,PA,17701
TJ Maxx,1101 Woodland Rd.,Wyomissing,PA,19610
TJ Maxx,1235 Carlisle Rd,York,PA,17404
TJ Maxx,39 Ave Los Corazones,Aguadilla,PR,00603
TJ Maxx,Carretera 167 Local 1 y 2,Bayamon,PR,00961
TJ Maxx,State Rd #1 KM 34.9,Caguas,PR,00725
TJ Maxx,Fragoso Ave Villa Fontana,Carolina,PR,00987
TJ Maxx,506 Truncado St,Hatillo,PR,00659
TJ Maxx,Corner of 149 & 584,Juana Diaz,PR,00795
TJ Maxx,4990 Candido Hoyos,Ponce,PR,00717
TJ Maxx,9410 Ave Los Romero,San Juan,PR,00926
TJ Maxx,Ave FD Roosevelt Esq San Patricio,San Patricio,PR,00968
TJ Maxx,PR #2 KM 29.7,Vega Alta,PR,00692
TJ Maxx,20 Chapel View Blvd,Cranston,RI,02920
TJ Maxx,199 O'connell Highway,Newport,RI,02840
TJ Maxx,6653 Post Road,North Kingstown,RI,02852
TJ Maxx,445 Putnam Pike,Smithfield,RI,02917
TJ Maxx,1245 Bald Hill Rd,Warwick,RI,02886
TJ Maxx,100 Franklin Street,Westerly,RI,02891
TJ Maxx,459 Fabian Drive,Aiken,SC,29803
TJ Maxx,3423 Clemson Blvd,Anderson,SC,29621
TJ Maxx,371 Robert Smalls Parkway,Beaufort,SC,29906
TJ Maxx,1812 Sam Rittenberg Hwy,Charleston,SC,29407
TJ Maxx,138 Harbison Boulevard,Columbia,SC,29210
TJ Maxx,321 Forum Drive,Columbia,SC,29229
TJ Maxx,1945 W. Palmetto Street,Florence,SC,29501
TJ Maxx,7804 Charlotte Hwy,Fort Mill,SC,29707
TJ Maxx,3249 N. Pleasantburg Dr.,Greenville,SC,29609
TJ Maxx,820 Woods Crossing Rd,Greenville,SC,29607
TJ Maxx,420-1 Highway 72 Bypass,Greenwood,SC,29649
TJ Maxx,50 Shelter Cove Lane,Hilton Head,SC,29928
TJ Maxx,5454 Sunset Boulevard,Lexington,SC,29072
TJ Maxx,1487 Highway 17 North,Mt Pleasant,SC,29464
TJ Maxx,1130 Seaboard Street,Myrtle Beach,SC,29577
TJ Maxx,1570 Hwy 17 N,North Myrtle Beach,SC,29582
TJ Maxx,2837 North Road,Orangeburg,SC,29118
TJ Maxx,10225 Ocean Hwy Unit 502,Pawleys Island,SC,29585
TJ Maxx,552 John Ross Parkway,Rock Hill,SC,29730
TJ Maxx,349 Harrison Bridge Road,Simpsonville,SC,29680
TJ Maxx,120A Dorman Center Drive,Spartanburg,SC,29301
TJ Maxx,412 Azalea Square Boulevard,Summerville,SC,29483
TJ Maxx,1300 Broad St Ext,Sumter,SC,29150
TJ Maxx,990 22nd Avenue South,Brookings,SD,57006
TJ Maxx,1615 N Harrison Ave S 35,Pierre,SD,57501
TJ Maxx,1611 Eglin St,Rapid City,SD,57701
TJ Maxx,3401 South Louise Ave.,Sioux Falls,SD,57106
TJ Maxx,7110 Highway 70 South,Bellevue,TN,37221
TJ Maxx,330 Franklin Pike Road,Brentwood,TN,37027
TJ Maxx,638 Northgate Mall,Chattanooga,TN,37415
TJ Maxx,2200 Hamilton Place Blvd,Chattanooga,TN,37421
TJ Maxx,2700 Wilma Rudolph Blvd.,Clarksville,TN,37043
TJ Maxx,300 Paul Huff Pkwy NW,Cleveland,TN,37312
TJ Maxx,821B James Campbell Blvd S,Columbia,TN,38401
TJ Maxx,377 West Jackson St.,Cookeville,TN,38501
TJ Maxx,545 Cool Springs Bvd,Franklin,TN,37067
TJ Maxx,1627 Gallatin Pike,Goodlettsville,TN,37115
TJ Maxx,127 Stonebrook Pl,Jackson,TN,38305
TJ Maxx,2116 Roan St,Johnson City,TN,37601
TJ Maxx,2003 North Eastman Rd,Kingsport,TN,37660
TJ Maxx,8079 A Kingston Pike,Knoxville,TN,37919
TJ Maxx,197 Foothills Mall Drive,Maryville,TN,37801
TJ Maxx,5100 Park Ave,Memphis,TN,38117
TJ Maxx,4220 Summer Avenue,Memphis,TN,38122
TJ Maxx,7670 Poplar Ave,Memphis,TN,38138
TJ Maxx,7940 Giacosa Place,Memphis,TN,38133
TJ Maxx,8699 US Highway 51 North,Millington,TN,38053
TJ Maxx,2550 E. Morris Blvd,Morristown,TN,37813
TJ Maxx,103 S Mt Juliet Rd,Mt Juliet,TN,37122
TJ Maxx,1911 Old Ft. Parkway,Murfreesboro,TN,37129
TJ Maxx,719 Thompson Lane,Nashville,TN,37204
TJ Maxx,211 Opry Mills Dr,Nashville,TN,37214
TJ Maxx,367 S Illinois Ave,Oak Ridge,TN,37830
TJ Maxx,617 Parkway,Sevierville,TN,37862
TJ Maxx,700 Genie Lane,Smyrna,TN,37167
TJ Maxx,1700 W Reelfoot Ave,Union City,TN,38261
TJ Maxx,3625 Catclaw Dr,Abilene,TX,79606
TJ Maxx,160 E Stacy Rd,Allen,TX,75002
TJ Maxx,7404 Sw 34 Street,Amarillo,TX,79121
TJ Maxx,4225 South Cooper Street,Arlington,TX,76015
TJ Maxx,9828 Great Hills Trail,Austin,TX,78759
TJ Maxx,5400 Brodie Ln,Austin,TX,78745
TJ Maxx,739-D Hwy 71 W,Bastrop,TX,78602
TJ Maxx,449 E Morrison Rd,Brownsville,TX,78526
TJ Maxx,509 W Commerce St,Brownwood,TX,76801
TJ Maxx,1195 N Burleson Blvd.,Burleson,TX,76028
TJ Maxx,11066 Pecan Prk Blvd,Cedar Park,TX,78613
TJ Maxx,1128 A Harvey Road,College Station,TX,77840
TJ Maxx,2916 Interstate 45 N,Conroe,TX,77303
TJ Maxx,4938 S Staples St,Corpus Christi,TX,78411
TJ Maxx,25891 Hwy 290,Cypress,TX,77429
TJ Maxx,9100 N Central Expressway,Dallas,TX,75231
TJ Maxx,14754 Preston Rd,Dallas (Preston),TX,75254
TJ Maxx,1800 S. Loop 288,Denton,TX,76205
TJ Maxx,443 East Trenton Rd,Edinburg,TX,78539
TJ Maxx,8889 Gateway W Blvd.,El Paso,TX,79925
TJ Maxx,6450 N Desert Blvd,El Paso,TX,79912
TJ Maxx,2830 Village Pkway,Flower Mound (Highland Village),TX,75077
TJ Maxx,2317 Porter Creek Dr,Fort Worth,TX,76177
TJ Maxx,4730 Sw Loop 820,Fort Worth,TX,76109
TJ Maxx,3261 Preston Rd,Frisco,TX,75034
TJ Maxx,1021 W University Ave,Georgetown,TX,78628
TJ Maxx,952 Dixieland Road,Harlingen,TX,78552
TJ Maxx,2938 Eldridge Parkway,Houston,TX,77082
TJ Maxx,425 Fry Road,Houston,TX,77094
TJ Maxx,3355 Clear Lake City Blvd,Houston,TX,77059
TJ Maxx,4520 Dacoma Street,Houston,TX,77092
TJ Maxx,1554 West Gray Avenue,Houston,TX,77019
TJ Maxx,5319 FM 1960 S-B,Houston,TX,77069
TJ Maxx,5152 Richmond Avenue,Houston,TX,77056
TJ Maxx,9726 Katy Fwy,Houston,TX,77055
TJ Maxx,13188 Memorial Drive,Houston,TX,77079
TJ Maxx,7055 FM 1960 East,Humble,TX,77346
TJ Maxx,821 Northeast Mall Drive,Hurst,TX,76053
TJ Maxx,7735 N. Macarthur Blvd.,Irving,TX,75063
TJ Maxx,100 Hwy 332 W,Lake Jackson,TX,77566
TJ Maxx,2444 Monarch Drive,Laredo,TX,78045
TJ Maxx,3030 S Gulf Freeway,League City,TX,77539
TJ Maxx,422 West Loop,Longview,TX,75604
TJ Maxx,7020 Quaker Ave,Lubbock,TX,79424
TJ Maxx,4600 S Medord Dr,Lufkin,TX,75901
TJ Maxx,32938 FM 2978,Magnolia,TX,77354
TJ Maxx,1685 E Broad St,Mansfield,TX,76063
TJ Maxx,3001 W. Loop 250 N,Midland,TX,79705
TJ Maxx,2417 E Expressway 83,Mission,TX,78572
TJ Maxx,9221 Eagle Dr,Mont Belvieu,TX,77523
TJ Maxx,239 Creekside Crossing,New Braunfels,TX,78130
TJ Maxx,21496 Market Place Drive,New Caney,TX,77357
TJ Maxx,3530 Lamar Avenue #408,Paris,TX,75460
TJ Maxx,2650 Pearland Pkwy,Pearland,TX,77581
TJ Maxx,500 N Jackson Rd,Pharr,TX,78577
TJ Maxx,3100 Hwy 365,Port Arthur,TX,77642
TJ Maxx,1061 Preston Rd,Prosper,TX,75078
TJ Maxx,12 Richardson Hgts,Richardson,TX,75080
TJ Maxx,26936 FM 1093,Richmond,TX,77406
TJ Maxx,967 I-30 East,Rockwall,TX,75087
TJ Maxx,415 W Loop 1604 S.,San Antonio,TX,78253
TJ Maxx,17822 La Cantera Parkway,San Antonio,TX,78257
TJ Maxx,11651 Bandera Road,San Antonio,TX,78250
TJ Maxx,820 E Rector Dr,San Antonio,TX,78216
TJ Maxx,8324 Agora Parkway,San Antonio (Forum),TX,78154
TJ Maxx,19075 I-45 South,Shenandoah,TX,77385
TJ Maxx,805 North Creek Dr,Sherman,TX,75091
TJ Maxx,2940 E.Southlake Bvd,Southlake,TX,76092
TJ Maxx,"6545 N Grand Pkwy W, S120",Spring,TX,77389
TJ Maxx,2745 West Washington St,Stephenville,TX,76401
TJ Maxx,3591 State Highway 6,Sugar Land,TX,77478
TJ Maxx,4236 St Michael Dr.,Texarkana,TX,75503
TJ Maxx,8942 S Broadway Ave S192,Tyler,TX,75703
TJ Maxx,7800 N Navarro,Victoria,TX,77904
TJ Maxx,1700 N Hwy 77,Waxahachie,TX,75165
TJ Maxx,425 Adams Dr,Weatherford,TX,76086
TJ Maxx,815 East Expressway 83,Weslaco,TX,78596
TJ Maxx,3610 Call Field Rd,Wichita Falls,TX,76308
TJ Maxx,3030 FM 544,Wylie,TX,75098
TJ Maxx,219 North Meadow Lane,American Fork,UT,84003
TJ Maxx,200 South 500 West,Bountiful,UT,84010
TJ Maxx,901 S Main St,Cedar City,UT,84720
TJ Maxx,172 East 12300 South St.,Draper,UT,84020
TJ Maxx,1136 No. Main Street,Logan,UT,84341
TJ Maxx,6995 South 1300th East,Midvale,UT,84047
TJ Maxx,268 West 1300 South,Orem,UT,84058
TJ Maxx,6400 N Hwy 224,Park City,UT,84098
TJ Maxx,4261 Riverdale Rd,Riverdale (Ogden),UT,84405
TJ Maxx,4582 W Kestrel Range Rd,Riverton,UT,84065
TJ Maxx,42 South River Road,Saint George,UT,84790
TJ Maxx,1122 E Brickyard Rd,Salt Lake City,UT,84106
TJ Maxx,1261 N Canyon Creek Pkwy,Spanish Fork,UT,84660
TJ Maxx,5670 S Redwood Rd,Taylorsville,UT,84123
TJ Maxx,2041 West US Hwy 40,Vernal,UT,84078
TJ Maxx,5950 Kingstowne Towne Center,Alexandria,VA,22315
TJ Maxx,3875 Richmond Hwy S 3,Alexandria,VA,22305
TJ Maxx,7730 Richmond Highway,Alexandria,VA,22306
TJ Maxx,1101 S Joyce St,Arlington,VA,22202
TJ Maxx,16740 Highlands Center Blvd,Bristol,VA,24202
TJ Maxx,1940 Rio Hill Center,Charlottesville,VA,22901
TJ Maxx,1412 Greenbriar Pkwy.,Chesapeake,VA,23320
TJ Maxx,12850 Jefferson Davis Hwy,Chester,VA,23831
TJ Maxx,160 Conston Ave.,Christiansburg,VA,24073
TJ Maxx,703 Dominion Square SC,Culpeper,VA,22701
TJ Maxx,24630 Dulles Landing Dr,Dulles,VA,20166
TJ Maxx,10300 Main St.,Fairfax,VA,22030
TJ Maxx,12170 Fairfax Towne Center,Fairfax,VA,22033
TJ Maxx,3504 S Jefferson St.,Falls Church,VA,22041
TJ Maxx,1833 Carl D Silver Pkwy,Fredericksburg,VA,22401
TJ Maxx,6702 Fox Centre Pkwy,Gloucester,VA,23061
TJ Maxx,1790 E. Market Street,Harrisonburg,VA,22801
TJ Maxx,12240 W Broad St,Henrico,VA,23233
TJ Maxx,16425 Merchants Lane,King George,VA,22485
TJ Maxx,3405 Candlers Mtn Rd,Lynchburg,VA,24502
TJ Maxx,10010 Sowder Village Square,Manassas,VA,20109
TJ Maxx,4851 Commonwealth Center Pky,Midlothian,VA,23112
TJ Maxx,12551 Jefferson Ave,Newport News,VA,23602
TJ Maxx,5900 East Virginia Beach Blvd,Norfolk,VA,23502
TJ Maxx,1241 Frederick Blvd,Portsmouth,VA,23707
TJ Maxx,1530N Parham Rd,Richmond,VA,23229
TJ Maxx,11500 Midlothian Tpke,Richmond,VA,23235
TJ Maxx,4208 Electric Rd,Roanoke,VA,24018
TJ Maxx,817 East Atlantic St,South Hill,VA,23970
TJ Maxx,1260 Stafford Market Place,Stafford,VA,22556
TJ Maxx,81 Orchard Hill Cir,Staunton,VA,24401
TJ Maxx,45591 Dulles Eastern Plaza,Sterling,VA,20166
TJ Maxx,6253 College Dr,Suffolk,VA,23435
TJ Maxx,8389 Leesburg Pike,Vienna,VA,22182
TJ Maxx,2356 Virginia Beach Blvd,Virginia Beach,VA,23454
TJ Maxx,1169 Nimmo Parkway,Virginia Beach,VA,23456
TJ Maxx,5252 Fairfield Shopping Center,Virginia Beach,VA,23464
TJ Maxx,4640-12 Monticello Ave.,Williamsburg,VA,23188
TJ Maxx,2330 Legge Blvd,Winchester,VA,22601
TJ Maxx,2700 Potomac Mls Cir,Woodbridge,VA,22192
TJ Maxx,168 Ames Dr.,Barre,VT,05641
TJ Maxx,595 Shelburne Road,Burlington,VT,05401
TJ Maxx,263 Depot Street,Manchester,VT,05255
TJ Maxx,260 Court St,Middlebury,VT,05753
TJ Maxx,3 Merchants Row,Rutland,VT,05701
TJ Maxx,226 Highgate Commons Rd,St Albans,VT,05478
TJ Maxx,4001 Factoria Square Mall SE,Bellevue,WA,98006
TJ Maxx,4289 Guide Meridian,Bellingham,WA,98226
TJ Maxx,201 Cascade Mall Dr,Burlington,WA,98233
TJ Maxx,23632 Highway 99,Edmonds,WA,98026
TJ Maxx,1130 SE Everett Mall Way,Everett,WA,98208
TJ Maxx,1910 S. 320th Street,Federal Way,WA,98003
TJ Maxx,1220 N. Columbia Center Blvd,Kennewick,WA,99336
TJ Maxx,25406 104th Ave SE,Kent,WA,98031
TJ Maxx,523 State Route 9 NE,Lake Stevens,WA,98258
TJ Maxx,2415 4th Ave W,Olympia,WA,98502
TJ Maxx,3829 S Meridian St,Puyallup,WA,98373
TJ Maxx,11029 Roosevelt Way Ne,Seattle,WA,98125
TJ Maxx,10300 Silverdale Way N.W.,Silverdale,WA,98383
TJ Maxx,9660 North Newport Hwy,Spokane,WA,99218
TJ Maxx,14010 E. Indiana Ave,Spokane,WA,99216
TJ Maxx,3216 South 23rd,Tacoma,WA,98405
TJ Maxx,2543 Main Street,Union Gap,WA,98903
TJ Maxx,8101 N E Parkway Dr,Vancouver,WA,98662
TJ Maxx,14051 Ne 175th Street,Woodinville,WA,98072
TJ Maxx,441 WI-64,Antigo,WI,54409
TJ Maxx,4890 Integrity Way,Appleton,WI,54913
TJ Maxx,210 N Gasser Rd,Baraboo,WI,53913
TJ Maxx,17460 West Bluemound Rd,Brookfield,WI,53045
TJ Maxx,4070 Commonwealth Avenue,Eau Claire,WI,54701
TJ Maxx,835 West Johnson Street,Fond Du Lac,WI,54935
TJ Maxx,1080 Port Washington Rd,Grafton,WI,53204
TJ Maxx,1505 W Mason St.,Green Bay,WI,54303
TJ Maxx,5200 South 76th St,Greendale,WI,53129
TJ Maxx,2900 Deerfield Dr,Janesville,WI,53546
TJ Maxx,620 N. Edwards Blvd,Lake Geneva,WI,53147
TJ Maxx,676 S Whitney Way,Madison,WI,53711
TJ Maxx,4421 Dewey St,Manitowoc,WI,54220
TJ Maxx,2716 Roosevelt Rd,Marinette,WI,54143
TJ Maxx,1629 N Central Ave,Marshfield,WI,54449
TJ Maxx,N91 W16123 Falls Pkwy,Menomonee Falls,WI,53051
TJ Maxx,161 W. Wisconsin Ave.,Milwaukee,WI,53203
TJ Maxx,8571 S Howell Ave,Oak Creek,WI,53154
TJ Maxx,9366 WI-16,Onalaska,WI,54650
TJ Maxx,1250 S Koeller St,Oshkosh,WI,54902
TJ Maxx,1260 Commons Circle,Plover,WI,54467
TJ Maxx,22 Riverside Square,Prairie Du Chien,WI,53821
TJ Maxx,2308 S. Greenbay Road,Racine,WI,53406
TJ Maxx,232 South Courtney St,Rhinelander,WI,54501
TJ Maxx,2900 South Main St,Rice Lake,WI,54868
TJ Maxx,4049 SR-28,Sheboygan,WI,53081
TJ Maxx,1300 Egg Harbor Rd,Sturgeon Bay,WI,54235
TJ Maxx,425 South Legacy Way,Sun Prairie,WI,53590
TJ Maxx,1160 W Sunset Dr,Waukesha,WI,53189
TJ Maxx,226450 Rib Mountain Drive,Wausau,WI,54401
TJ Maxx,11500 W Burleigh St,Wauwatosa,WI,53222
TJ Maxx,500 Mall Rd Suite 600,Barboursville,WV,25504
TJ Maxx,110 Beckley Crossing,Beckley,WV,25801
TJ Maxx,26 Riverwalk Plaza,Charleston,WV,25303
TJ Maxx,198 Retail Commons Pkwy,Martinsburg,WV,25403
TJ Maxx,499 Target Way,Morgantown,WV,26501
TJ Maxx,100 Grand Central Mall,Parkersburg,WV,26105
TJ Maxx,530 Cabela Dr,Triadelphia,WV,26003
TJ Maxx,1772 Dell Range Blvd.,Cheyenne,WY,82009
TJ Maxx,455 W Broadway Ave,Jackson Hole,WY,83001
TJ Maxx,2441 Foothill Blvd,Rock Springs,WY,82901
